{
"type": "FeatureCollection",
"name": "Fasum geojson",
"crs": { "type": "name", "properties": { "name": "urn:ogc:def:crs:OGC:1.3:CRS84" } },
"features": [
{ "type": "Feature", "properties": { "fid": "1", "Name": "PAUD AL IKHLAS JETIS", "Google Maps": "https://maps.app.goo.gl/4Ao5FyeSZMdx6hAM8", "Path Foto": "https://lh3.googleusercontent.com/u/0/d/18IHtGXxN1LvT3Dhf5Xqtz0ST_YXwnpYL", "Jenis": "PAUD", "layer": "PAUD", "path": "C:/KKN/01_Data_GIS/Fasilitas_Umum/UMKM/PAUD.geojson" }, "geometry": { "type": "Point", "coordinates": [ 110.3823544, -7.2350639, 0.0 ] } },
{ "type": "Feature", "properties": { "fid": "2", "Name": "PAUD Assalam Bandungan", "Google Maps": "https://maps.app.goo.gl/sdQk4wd1wmowwkEHA", "Path Foto": "https://lh3.googleusercontent.com/u/0/d/1aB8eadlMU4ShIi1HQ5pOVtzU4prNim29", "Jenis": "PAUD", "layer": "PAUD", "path": "C:/KKN/01_Data_GIS/Fasilitas_Umum/UMKM/PAUD.geojson" }, "geometry": { "type": "Point", "coordinates": [ 110.376371, -7.2331166, 0.0 ] } },
{ "type": "Feature", "properties": { "fid": "3", "Name": "Kelompok Bermain Al Mina", "Google Maps": "https://maps.app.goo.gl/XkAhYoSPAyGignHm7", "Path Foto": "https://lh3.googleusercontent.com/u/0/d/1yurdAGMaJNqxT5cSqgWnn_z11cunMW_u", "Jenis": "PAUD", "layer": "PAUD", "path": "C:/KKN/01_Data_GIS/Fasilitas_Umum/UMKM/PAUD.geojson" }, "geometry": { "type": "Point", "coordinates": [ 110.3792078, -7.232156, 0.0 ] } },
{ "type": "Feature", "properties": { "fid": "4", "Name": "Sekolah Alam El Hakim", "Google Maps": "https://maps.app.goo.gl/3p8osMvMigPnhdXE8", "Path Foto": "https://lh3.googleusercontent.com/u/0/d/1ERYWRDyly1-ADokLFW46bokzKtqNh3sP", "Jenis": "PAUD", "layer": "PAUD", "path": "C:/KKN/01_Data_GIS/Fasilitas_Umum/UMKM/PAUD.geojson" }, "geometry": { "type": "Point", "coordinates": [ 110.3769849, -7.2328791, 0.0 ] } },
{ "type": "Feature", "properties": { "fid": "1", "Name": "MASJID NURUL HIDAYAH NGUNUT", "Google Maps": "https://maps.app.goo.gl/wzaYwzSp9sHsRnoVA", "Path Foto": "https://lh3.googleusercontent.com/u/0/d/1OkfdfkpVPnASftvzG7OfwgBn_SOk_mp7", "Jenis": "Sarana Ibadah", "layer": "SARANA IBADAH", "path": "C:/KKN/01_Data_GIS/Fasilitas_Umum/Sarana_Fasum/SARANA IBADAH.gpkg|layername=SARANA IBADAH" }, "geometry": { "type": "Point", "coordinates": [ 110.3738864, -7.2255514, 0.0 ] } },
{ "type": "Feature", "properties": { "fid": "2", "Name": "Masjid Al Mutaqin", "Google Maps": "https://maps.app.goo.gl/TiqvPoWxWgpAueMS7", "Path Foto": "https://lh3.googleusercontent.com/u/0/d/1UR63gH_tQx0uOsMfI-2qYuCc-JbFDVAk", "Jenis": "Sarana Ibadah", "layer": "SARANA IBADAH", "path": "C:/KKN/01_Data_GIS/Fasilitas_Umum/Sarana_Fasum/SARANA IBADAH.gpkg|layername=SARANA IBADAH" }, "geometry": { "type": "Point", "coordinates": [ 110.377915, -7.2290036, 0.0 ] } },
{ "type": "Feature", "properties": { "fid": "3", "Name": "Masjid Roudlotul Jannah", "Google Maps": "https://maps.app.goo.gl/gm9VfjYuEoS8DxDF9", "Path Foto": "https://lh3.googleusercontent.com/u/0/d/1t6SsfJaU3_cIaE3iu7RP6c5SOpNn84ev", "Jenis": "Sarana Ibadah", "layer": "SARANA IBADAH", "path": "C:/KKN/01_Data_GIS/Fasilitas_Umum/Sarana_Fasum/SARANA IBADAH.gpkg|layername=SARANA IBADAH" }, "geometry": { "type": "Point", "coordinates": [ 110.37584080000002, -7.2311907, 0.0 ] } },
{ "type": "Feature", "properties": { "fid": "4", "Name": "Masjid Al Walidain Assalam Bandungan", "Google Maps": "https://maps.app.goo.gl/eeCPStYCwFYxYYRi7", "Path Foto": "https://lh3.googleusercontent.com/u/0/d/1YF0LuPeWLw-PAnqvn3ZVTng4BZXDHXR_", "Jenis": "Sarana Ibadah", "layer": "SARANA IBADAH", "path": "C:/KKN/01_Data_GIS/Fasilitas_Umum/Sarana_Fasum/SARANA IBADAH.gpkg|layername=SARANA IBADAH" }, "geometry": { "type": "Point", "coordinates": [ 110.3750942, -7.2326545, 0.0 ] } },
{ "type": "Feature", "properties": { "fid": "5", "Name": "Masjid Al Huda Ngawinan", "Google Maps": "https://maps.app.goo.gl/2oWmbeECLuuZcvyq8", "Path Foto": "https://lh3.googleusercontent.com/u/0/d/1e6zqkkw1WHzkh7_yC9CDw5ANeKODMSzI", "Jenis": "Sarana Ibadah", "layer": "SARANA IBADAH", "path": "C:/KKN/01_Data_GIS/Fasilitas_Umum/Sarana_Fasum/SARANA IBADAH.gpkg|layername=SARANA IBADAH" }, "geometry": { "type": "Point", "coordinates": [ 110.3800591, -7.2325063, 0.0 ] } },
{ "type": "Feature", "properties": { "fid": "6", "Name": "Masjid Baitul 'Ibad Jetis", "Google Maps": "https://maps.app.goo.gl/ekEhimkKeDnVpGcg8", "Path Foto": "https://lh3.googleusercontent.com/u/0/d/104tRQ9p1VnKyxzb8zL2Abt_kZLbsO6KG", "Jenis": "Sarana Ibadah", "layer": "SARANA IBADAH", "path": "C:/KKN/01_Data_GIS/Fasilitas_Umum/Sarana_Fasum/SARANA IBADAH.gpkg|layername=SARANA IBADAH" }, "geometry": { "type": "Point", "coordinates": [ 110.3822715, -7.2347875, 0.0 ] } },
{ "type": "Feature", "properties": { "fid": "7", "Name": "Masjid Baitussalam Jombor", "Google Maps": "https://maps.app.goo.gl/VaTfZJQs4iaEr4ma9", "Path Foto": "https://lh3.googleusercontent.com/u/0/d/1_av8WzNZstoj7awk1_TA9h1_E2MeuSkY", "Jenis": "Sarana Ibadah", "layer": "SARANA IBADAH", "path": "C:/KKN/01_Data_GIS/Fasilitas_Umum/Sarana_Fasum/SARANA IBADAH.gpkg|layername=SARANA IBADAH" }, "geometry": { "type": "Point", "coordinates": [ 110.3850309, -7.2355207, 0.0 ] } },
{ "type": "Feature", "properties": { "fid": "1", "Name": "PKD Jetis", "Google Maps": "https://maps.app.goo.gl/F7rpgncpp7mBwRCp8", "Path Foto": "https://lh3.googleusercontent.com/u/0/d/1X7Reo3SYv7Zw_VhUSX98-13yyBbCYb54", "Jenis": "Sarana Kesehatan", "layer": "SARANA KESEHATAN", "path": "C:/KKN/01_Data_GIS/Fasilitas_Umum/Sarana_Fasum/SARANA KESEHATAN.gpkg|layername=SARANA KESEHATAN" }, "geometry": { "type": "Point", "coordinates": [ 109.1287412, -7.5391834, 0.0 ] } },
{ "type": "Feature", "properties": { "fid": "1", "Name": "Pasar Bandungan Baru", "Google Maps": "https://maps.app.goo.gl/HTWSvLWCToSxqC1r8", "Path Foto": "https://lh3.googleusercontent.com/u/0/d/1CcxT3vK9zYp2R6Tv0JStPE_zrgyjbuPI", "Jenis": "Sarana Perekonomian", "layer": "SARANA PEREKONOMIAN", "path": "C:/KKN/01_Data_GIS/Fasilitas_Umum/Sarana_Fasum/SARANA PEREKONOMIAN.gpkg|layername=SARANA PEREKONOMIAN" }, "geometry": { "type": "Point", "coordinates": [ 110.372423, -7.2261947, 0.0 ] } },
{ "type": "Feature", "properties": { "fid": "2", "Name": "Agribusiness Terminal Market Vegetable Ngasem", "Google Maps": "https://maps.app.goo.gl/b3xAu8dTL7pQRWRL7", "Path Foto": "https://lh3.googleusercontent.com/u/0/d/1_c28NxGtZOqGfcON6RcuLU4D6TXvtLpA", "Jenis": "Sarana Perekonomian", "layer": "SARANA PEREKONOMIAN", "path": "C:/KKN/01_Data_GIS/Fasilitas_Umum/Sarana_Fasum/SARANA PEREKONOMIAN.gpkg|layername=SARANA PEREKONOMIAN" }, "geometry": { "type": "Point", "coordinates": [ 110.3741247, -7.2305757, 0.0 ] } },
{ "type": "Feature", "properties": { "fid": "3", "Name": "Pasar Bunga Bandungan", "Google Maps": "https://maps.app.goo.gl/tWHq9Arry6tHQQ517", "Path Foto": "https://lh3.googleusercontent.com/u/0/d/1fXFk4vYAhC5ayWsJ8BACjz-NGggI7ESd", "Jenis": "Sarana Perekonomian", "layer": "SARANA PEREKONOMIAN", "path": "C:/KKN/01_Data_GIS/Fasilitas_Umum/Sarana_Fasum/SARANA PEREKONOMIAN.gpkg|layername=SARANA PEREKONOMIAN" }, "geometry": { "type": "Point", "coordinates": [ 110.3753136, -7.2310275, 0.0 ] } },
{ "type": "Feature", "properties": { "fid": "1", "Name": "Kantor Kepala Desa Jetis Bandungan", "Google Maps": "https://maps.app.goo.gl/YoBB6GWoHXnLY94TA", "Path Foto": "https://lh3.googleusercontent.com/u/0/d/1UAcXoMmHpfAZ50jJ6bUR8pSv0NBCKVZp", "Jenis": "Sarana Prasana Lainnya", "layer": "SARANA PRASARANA LAINNYA", "path": "C:/KKN/01_Data_GIS/Fasilitas_Umum/Sarana_Fasum/SARANA PRASARANA LAINNYA.gpkg|layername=SARANA PRASARANA LAINNYA" }, "geometry": { "type": "Point", "coordinates": [ 110.3748405, -7.2311905, 0.0 ] } },
{ "type": "Feature", "properties": { "fid": "2", "Name": "Lapangan Sepak Bola \"SAPTA RENGGA\" Desa Jetis", "Google Maps": "https://maps.app.goo.gl/mkFidFreSsywALTY9", "Path Foto": "https://lh3.googleusercontent.com/u/0/d/1BVyDbOlM8NXbAbp4x8jNM2OpMPe9JsHb", "Jenis": "Sarana Prasana Lainnya", "layer": "SARANA PRASARANA LAINNYA", "path": "C:/KKN/01_Data_GIS/Fasilitas_Umum/Sarana_Fasum/SARANA PRASARANA LAINNYA.gpkg|layername=SARANA PRASARANA LAINNYA" }, "geometry": { "type": "Point", "coordinates": [ 110.3742501, -7.2296362, 0.0 ] } },
{ "type": "Feature", "properties": { "fid": "3", "Name": "SPBU 44.506.11 JETIS - BANDUNGAN", "Google Maps": "https://maps.app.goo.gl/ktPN6jxHNvr4yygU7", "Path Foto": "https://lh3.googleusercontent.com/u/0/d/1qs_a1ev3mlV8xAR3ua_aOzmFZog1SN-J", "Jenis": "Sarana Prasana Lainnya", "layer": "SARANA PRASARANA LAINNYA", "path": "C:/KKN/01_Data_GIS/Fasilitas_Umum/Sarana_Fasum/SARANA PRASARANA LAINNYA.gpkg|layername=SARANA PRASARANA LAINNYA" }, "geometry": { "type": "Point", "coordinates": [ 110.37365, -7.2272933, 0.0 ] } },
{ "type": "Feature", "properties": { "fid": "1", "Name": "SD Negeri 01 Jetis, kec. Bandungan", "Google Maps": "https://maps.app.goo.gl/oX1DoDyvGfT8zNLv5", "Path Foto": "https://lh3.googleusercontent.com/u/0/d/1LgWxCh7-hpFvO8iCbMsc9EYPnoMbTY3p", "Jenis": "Sekolah Dasar", "layer": "SEKOLAH DASAR ATAU MADRASAH IBTIDAIYAH", "path": "C:/KKN/01_Data_GIS/Fasilitas_Umum/Sarana_Fasum/SEKOLAH DASAR ATAU MADRASAH IBTIDAIYAH.gpkg|layername=SEKOLAH DASAR ATAU MADRASAH IBTIDAIYAH" }, "geometry": { "type": "Point", "coordinates": [ 110.38112, -7.235417, 0.0 ] } },
{ "type": "Feature", "properties": { "fid": "2", "Name": "SD Negeri Jetis 02", "Google Maps": "https://maps.app.goo.gl/ETLbwFEhJdNF3xL87", "Path Foto": "https://lh3.googleusercontent.com/u/0/d/1Xh6Xemha1AIVZ_uKlsHbBfiSgvrbquVu", "Jenis": "Sekolah Dasar", "layer": "SEKOLAH DASAR ATAU MADRASAH IBTIDAIYAH", "path": "C:/KKN/01_Data_GIS/Fasilitas_Umum/Sarana_Fasum/SEKOLAH DASAR ATAU MADRASAH IBTIDAIYAH.gpkg|layername=SEKOLAH DASAR ATAU MADRASAH IBTIDAIYAH" }, "geometry": { "type": "Point", "coordinates": [ 110.3800798, -7.2298759, 0.0 ] } },
{ "type": "Feature", "properties": { "fid": "3", "Name": "SDIT Assalam Bandungan", "Google Maps": "https://maps.app.goo.gl/3t7VdsVJtuXvyGTQ7", "Path Foto": "https://lh3.googleusercontent.com/u/0/d/1FqV424Oc6jTJ518o7GehbQIotkrJQIEk", "Jenis": "Sekolah Dasar", "layer": "SEKOLAH DASAR ATAU MADRASAH IBTIDAIYAH", "path": "C:/KKN/01_Data_GIS/Fasilitas_Umum/Sarana_Fasum/SEKOLAH DASAR ATAU MADRASAH IBTIDAIYAH.gpkg|layername=SEKOLAH DASAR ATAU MADRASAH IBTIDAIYAH" }, "geometry": { "type": "Point", "coordinates": [ 110.3762893, -7.2331018, 0.0 ] } },
{ "type": "Feature", "properties": { "fid": "4", "Name": "MI Nurul Anwar Jetis", "Google Maps": "https://maps.app.goo.gl/rdyNzx8iKymMtPGi6", "Path Foto": "https://lh3.googleusercontent.com/u/0/d/1TzdQ1qiTARGcTHu6qCDydtxwkVpT6vXG", "Jenis": "Madrasah Ibtidaiyah", "layer": "SEKOLAH DASAR ATAU MADRASAH IBTIDAIYAH", "path": "C:/KKN/01_Data_GIS/Fasilitas_Umum/Sarana_Fasum/SEKOLAH DASAR ATAU MADRASAH IBTIDAIYAH.gpkg|layername=SEKOLAH DASAR ATAU MADRASAH IBTIDAIYAH" }, "geometry": { "type": "Point", "coordinates": [ 110.3824398, -7.2347676, 0.0 ] } },
{ "type": "Feature", "properties": { "fid": "5", "Name": "MI Al Mina", "Google Maps": "https://maps.app.goo.gl/8KpNBsYXFyQZKBB47", "Path Foto": "https://lh3.googleusercontent.com/u/0/d/1PYOUuTrU3j7x9G6eCT1fgRAXbhLM2Eqt", "Jenis": "Madrasah Ibtidaiyah", "layer": "SEKOLAH DASAR ATAU MADRASAH IBTIDAIYAH", "path": "C:/KKN/01_Data_GIS/Fasilitas_Umum/Sarana_Fasum/SEKOLAH DASAR ATAU MADRASAH IBTIDAIYAH.gpkg|layername=SEKOLAH DASAR ATAU MADRASAH IBTIDAIYAH" }, "geometry": { "type": "Point", "coordinates": [ 110.380218, -7.2327468, 0.0 ] } },
{ "type": "Feature", "properties": { "fid": "1", "Name": "SMK Al Mina Bandungan", "Google Maps": null, "Path Foto": null, "Jenis": null, "layer": "SEKOLAH MENENGAH ATAS ATAU SEKOLAH MENENGAH KEJURUAN", "path": "C:/KKN/01_Data_GIS/Fasilitas_Umum/Sarana_Fasum/SEKOLAH MENENGAH ATAS ATAU SEKOLAH MENENGAH KEJURUAN.gpkg|layername=SEKOLAH MENENGAH ATAS ATAU SEKOLAH MENENGAH KEJURUAN" }, "geometry": { "type": "Point", "coordinates": [ 110.3798218, -7.2323432, 0.0 ] } },
{ "type": "Feature", "properties": { "fid": "1", "Name": "SMP IT Assalam Jetis Bandungan", "Google Maps": "https://maps.app.goo.gl/oYKZN2raKXP8Wd3m9", "Path Foto": "https://lh3.googleusercontent.com/u/0/d/1yX1xFncQj_yU3WzQhDl5iRe3jCQO1q9b", "Jenis": "Sekolah Menengah Pertama", "layer": "SEKOLAH MENENGAH PERTAMA ATAU MADRASAH TSANAWIYAH", "path": "C:/KKN/01_Data_GIS/Fasilitas_Umum/Sarana_Fasum/SEKOLAH MENENGAH PERTAMA ATAU MADRASAH TSANAWIYAH.gpkg|layername=SEKOLAH MENENGAH PERTAMA ATAU MADRASAH TSANAWIYAH" }, "geometry": { "type": "Point", "coordinates": [ 110.3752112, -7.2322344, 0.0 ] } },
{ "type": "Feature", "properties": { "fid": "2", "Name": "MTs SA AL MINA", "Google Maps": "https://maps.app.goo.gl/WLJAsageXfLMb3JK8", "Path Foto": "https://lh3.googleusercontent.com/u/0/d/1n488fKlWwWGi_HN3dxoz7nlJysQN04tQ", "Jenis": "Madrasah Tsanawiyah", "layer": "SEKOLAH MENENGAH PERTAMA ATAU MADRASAH TSANAWIYAH", "path": "C:/KKN/01_Data_GIS/Fasilitas_Umum/Sarana_Fasum/SEKOLAH MENENGAH PERTAMA ATAU MADRASAH TSANAWIYAH.gpkg|layername=SEKOLAH MENENGAH PERTAMA ATAU MADRASAH TSANAWIYAH" }, "geometry": { "type": "Point", "coordinates": [ 110.379845, -7.2321626, 0.0 ] } },
{ "type": "Feature", "properties": { "fid": "1", "Name": "Tk-Al Hidayah Ngasem", "Google Maps": "https://maps.app.goo.gl/3HSfj63WtCbUf2Hc6", "Path Foto": "https://lh3.googleusercontent.com/u/0/d/1r0HzgS-9pYnIhvJ9nNHq-b0GQ2Z5pBOg", "Jenis": "Taman Kanak-Kanak", "layer": "TAMAN KANAK-KANAK ATAU RAUDATUL ATHFAL", "path": "C:/KKN/01_Data_GIS/Fasilitas_Umum/Sarana_Fasum/TAMAN KANAK-KANAK ATAU RAUDATUL ATHFAL.gpkg|layername=TAMAN KANAK-KANAK ATAU RAUDATUL ATHFAL" }, "geometry": { "type": "Point", "coordinates": [ 110.3803035, -7.2299643, 0.0 ] } },
{ "type": "Feature", "properties": { "fid": "2", "Name": "TKIT Assalam", "Google Maps": "https://maps.app.goo.gl/ZptMErJyzssvQXzU9", "Path Foto": "https://lh3.googleusercontent.com/u/0/d/1f5hV6U2-MOEfRJQo5E08ToKaVyPiRgu8", "Jenis": "Taman Kanak-Kanak", "layer": "TAMAN KANAK-KANAK ATAU RAUDATUL ATHFAL", "path": "C:/KKN/01_Data_GIS/Fasilitas_Umum/Sarana_Fasum/TAMAN KANAK-KANAK ATAU RAUDATUL ATHFAL.gpkg|layername=TAMAN KANAK-KANAK ATAU RAUDATUL ATHFAL" }, "geometry": { "type": "Point", "coordinates": [ 110.3763679, -7.2330389, 0.0 ] } },
{ "type": "Feature", "properties": { "fid": "3", "Name": "RA Al Mina", "Google Maps": "https://maps.app.goo.gl/fYsFchznvPtkVroM6", "Path Foto": "https://lh3.googleusercontent.com/u/0/d/1sWJO669Ksea2KBFYb-URMo8ua9P65_8a", "Jenis": "Raudhatul Athfal", "layer": "TAMAN KANAK-KANAK ATAU RAUDATUL ATHFAL", "path": "C:/KKN/01_Data_GIS/Fasilitas_Umum/Sarana_Fasum/TAMAN KANAK-KANAK ATAU RAUDATUL ATHFAL.gpkg|layername=TAMAN KANAK-KANAK ATAU RAUDATUL ATHFAL" }, "geometry": { "type": "Point", "coordinates": [ 110.3791271, -7.2321533, 0.0 ] } }
]
}
