{
"type": "FeatureCollection",
"name": "Batas Dusun Desa Jetis",
"crs": { "type": "name", "properties": { "name": "urn:ogc:def:crs:OGC:1.3:CRS84" } },
"features": [
{ "type": "Feature", "properties": { "fid": 1, "id": null, "Dusun": "Ngunut" }, "geometry": { "type": "MultiPolygon", "coordinates": [ [ [ [ 110.37177943, -7.226141 ], [ 110.372101430999976, -7.225795001 ], [ 110.372263431000022, -7.225605 ], [ 110.37257243, -7.225169 ], [ 110.372739417, -7.224857870999977 ], [ 110.372765592, -7.224738898 ], [ 110.372788430000014, -7.224364 ], [ 110.37288356800002, -7.223769401000026 ], [ 110.37294332, -7.223381399 ], [ 110.372988454, -7.222807606 ], [ 110.373571458000015, -7.222813124000021 ], [ 110.373216918000026, -7.222065814000021 ], [ 110.373205020000015, -7.221923048 ], [ 110.373185985000035, -7.22173031 ], [ 110.373338271000023, -7.221961119 ], [ 110.373585735, -7.221946366 ], [ 110.373917670000026, -7.222085564 ], [ 110.374231758, -7.222296146000024 ], [ 110.374431037000022, -7.222457949999984 ], [ 110.374664806999988, -7.222727883 ], [ 110.374988886999986, -7.223062255 ], [ 110.375083357999983, -7.223114040999963 ], [ 110.375307670999973, -7.222724014 ], [ 110.375524797000026, -7.222271797000019 ], [ 110.375735974, -7.222387794999966 ], [ 110.375848999000027, -7.222435383999984 ], [ 110.375962023000014, -7.222435384 ], [ 110.376066125000023, -7.222408615 ], [ 110.376295148, -7.222560306 ], [ 110.376628272, -7.222560305999985 ], [ 110.377089292999983, -7.222798253 ], [ 110.377532466, -7.222932097000015 ], [ 110.377484878000018, -7.223663900000016 ], [ 110.377580056999989, -7.223723387000017 ], [ 110.377627646, -7.223760863999984 ], [ 110.37753957586078, -7.224094313179768 ], [ 110.37609941909345, -7.224052011088782 ], [ 110.375774568580184, -7.224927259438308 ], [ 110.375746254827874, -7.225228140538848 ], [ 110.375583656764775, -7.225210404142981 ], [ 110.3755759282474, -7.225614008258193 ], [ 110.375188455491667, -7.225649301454576 ], [ 110.375100745158818, -7.225665102983799 ], [ 110.375059091193265, -7.225811525394991 ], [ 110.374965031921775, -7.225806620009452 ], [ 110.374885067868306, -7.225986425431381 ], [ 110.374562476289199, -7.225795719112536 ], [ 110.374476889212005, -7.226006564016282 ], [ 110.374345948842318, -7.226155252132322 ], [ 110.374301275644243, -7.226178277286267 ], [ 110.374241448571169, -7.226206854232907 ], [ 110.374004626261197, -7.226542078640326 ], [ 110.373885116631541, -7.226494149555927 ], [ 110.373203528988867, -7.22707753887605 ], [ 110.373077716585868, -7.226975467216361 ], [ 110.372574037999982, -7.226697132000022 ], [ 110.371747401999983, -7.226187417999985 ], [ 110.37177943, -7.226141 ] ] ] ] } },
{ "type": "Feature", "properties": { "fid": 2, "id": null, "Dusun": "Deso" }, "geometry": { "type": "MultiPolygon", "coordinates": [ [ [ [ 110.37132, -7.236653 ], [ 110.371347431, -7.236392 ], [ 110.371407431000023, -7.236041 ], [ 110.371434129000022, -7.235858414 ], [ 110.371491628, -7.23580589 ], [ 110.371548141000019, -7.235707736999978 ], [ 110.371586805999982, -7.235624456999979 ], [ 110.371655214999976, -7.235341894999974 ], [ 110.371523071000013, -7.235040568999985 ], [ 110.371373163999976, -7.234926355000034 ], [ 110.37130892, -7.234747895999983 ], [ 110.371537348, -7.234783588000035 ], [ 110.372015619000024, -7.234633681 ], [ 110.372308293, -7.234612266 ], [ 110.372602914000026, -7.234413214000022 ], [ 110.37274568200003, -7.234377522999978 ], [ 110.372909865, -7.234284724000016 ], [ 110.373024079, -7.234084849999987 ], [ 110.373323891, -7.233970635999989 ], [ 110.373673571999973, -7.233911546 ], [ 110.373762801999987, -7.233828264000017 ], [ 110.374000748000014, -7.233863956 ], [ 110.374203002, -7.234018622 ], [ 110.374274384999978, -7.233935339000031 ], [ 110.374256539999976, -7.23373308499998 ], [ 110.374155412999983, -7.233691446000017 ], [ 110.3739948, -7.233620061000011 ], [ 110.373893673000012, -7.23346539699998 ], [ 110.373947209999983, -7.233227450000019 ], [ 110.373905569999977, -7.233037093000011 ], [ 110.373988850999979, -7.232935967 ], [ 110.373941262000017, -7.232834840000017 ], [ 110.373816340000019, -7.232763455 ], [ 110.373673571999973, -7.232644482000012 ], [ 110.373483216000011, -7.232632584 ], [ 110.373459421, -7.232561201 ], [ 110.373388036999984, -7.232442228000026 ], [ 110.373221474, -7.232495765 ], [ 110.373138193999978, -7.232454125 ], [ 110.373072757999978, -7.232341099999978 ], [ 110.372888349999982, -7.232293512 ], [ 110.372758691, -7.232132598000021 ], [ 110.372859818, -7.232004700999988 ], [ 110.372960945999978, -7.231799473000017 ], [ 110.372989088999987, -7.231569046 ], [ 110.37315743, -7.23126 ], [ 110.372712273, -7.23068737800003 ], [ 110.372537978000025, -7.230607071 ], [ 110.372174514999983, -7.230359013 ], [ 110.372088259, -7.230025293999967 ], [ 110.372056137000015, -7.229668374000035 ], [ 110.371818309999981, -7.229534528999975 ], [ 110.371656506000036, -7.229344173000013 ], [ 110.371618435000016, -7.229272789999976 ], [ 110.371451873000012, -7.229334655999986 ], [ 110.371399524000026, -7.229063396000014 ], [ 110.371332900000027, -7.228915869999975 ], [ 110.371042605000014, -7.228834968 ], [ 110.370904597, -7.228673166000013 ], [ 110.370861766000019, -7.228563709000014 ], [ 110.370787408000012, -7.228496886000023 ], [ 110.370736051, -7.228394490000038 ], [ 110.370750327999986, -7.228251723000033 ], [ 110.370786020000025, -7.228119662999969 ], [ 110.370875249999983, -7.228076832 ], [ 110.37132139900001, -7.227926926 ], [ 110.371506996999983, -7.227834127 ], [ 110.371649368000021, -7.227672325000015 ], [ 110.37179213600001, -7.227415341999962 ], [ 110.372070533, -7.227136945999968 ], [ 110.372277546000021, -7.22711553 ], [ 110.372277546000021, -7.227436757000019 ], [ 110.372398897999986, -7.227572386000021 ], [ 110.372448867000017, -7.227800813999983 ], [ 110.37256308100001, -7.22769373900002 ], [ 110.372705849, -7.227379649999985 ], [ 110.372440182999981, -7.226939932 ], [ 110.372574037999982, -7.226697132000022 ], [ 110.373077716585868, -7.226975467216361 ], [ 110.373203528988867, -7.22707753887605 ], [ 110.373519561658966, -7.227374580695426 ], [ 110.373735033012295, -7.227638181391764 ], [ 110.373807809742189, -7.227757693914292 ], [ 110.373855419703119, -7.227917772148686 ], [ 110.37383847192433, -7.228068208727126 ], [ 110.373780878218483, -7.228211424728804 ], [ 110.373579530246843, -7.228545503363479 ], [ 110.373349589056545, -7.228803118539769 ], [ 110.373473873192921, -7.228857622058428 ], [ 110.373511820056777, -7.228871108115356 ], [ 110.373590662063989, -7.228927937413302 ], [ 110.373624171309572, -7.2289076833137 ], [ 110.373672021446808, -7.228893419540505 ], [ 110.373689920014314, -7.228920909019248 ], [ 110.373722231850834, -7.228901847392877 ], [ 110.373750329331884, -7.228903975707071 ], [ 110.373776243367672, -7.22897207646741 ], [ 110.373744816423738, -7.228999796724298 ], [ 110.373776138521578, -7.22904820183869 ], [ 110.373786890497101, -7.229055381361012 ], [ 110.373792234414964, -7.229082256529774 ], [ 110.37381638319296, -7.229129756195223 ], [ 110.37385309856343, -7.229169212769823 ], [ 110.37406400838438, -7.229055463366417 ], [ 110.374083740897575, -7.229053699267884 ], [ 110.374148273746542, -7.229081551282142 ], [ 110.374189533648575, -7.229077129946384 ], [ 110.374382322927488, -7.229097097608641 ], [ 110.374426307793925, -7.22906760334727 ], [ 110.374580383512267, -7.229196780325744 ], [ 110.374771311495309, -7.22926600297081 ], [ 110.374963860815086, -7.229460610990614 ], [ 110.375118431396274, -7.229556203693925 ], [ 110.375267643266724, -7.229635668305162 ], [ 110.375419154458967, -7.229673490875537 ], [ 110.375492875916393, -7.229541043875527 ], [ 110.375670343276724, -7.229616516889656 ], [ 110.375754666653322, -7.229600511657464 ], [ 110.375833773850758, -7.229464489588612 ], [ 110.375963007105042, -7.22939839249783 ], [ 110.375945129683487, -7.229355379484157 ], [ 110.375907659884305, -7.229212033050575 ], [ 110.376158882810785, -7.229129982163109 ], [ 110.376178561260787, -7.229167624065953 ], [ 110.376146238842438, -7.229194447679442 ], [ 110.376137231309031, -7.229223094383743 ], [ 110.376169419380162, -7.229294188939696 ], [ 110.376250662361585, -7.229344453401626 ], [ 110.376030507829441, -7.229442070493726 ], [ 110.376072246424741, -7.229524522326115 ], [ 110.376047068228871, -7.229573447041655 ], [ 110.37608767990092, -7.229605744030231 ], [ 110.376143857792144, -7.229622538676361 ], [ 110.376415038721021, -7.229810387514573 ], [ 110.376414915877916, -7.229899946816889 ], [ 110.376783947547182, -7.23023540390134 ], [ 110.377112020387344, -7.230355862009226 ], [ 110.377389931394973, -7.230432367236511 ], [ 110.377695631787901, -7.230517866189575 ], [ 110.377738448853634, -7.230686296481247 ], [ 110.377415449870966, -7.230789744431361 ], [ 110.377429573364694, -7.230954553171 ], [ 110.377673235018449, -7.23115549916333 ], [ 110.377522229892051, -7.231402477135232 ], [ 110.377611490579085, -7.231710683656805 ], [ 110.377385377516404, -7.231792769541459 ], [ 110.377453060338013, -7.232140352778635 ], [ 110.377179614874422, -7.232731071684666 ], [ 110.377189472890393, -7.232954386773766 ], [ 110.377114942228431, -7.233240875204486 ], [ 110.377097121596378, -7.233447036641565 ], [ 110.377009097611449, -7.233690518046906 ], [ 110.376911596849268, -7.233868707567455 ], [ 110.376559414774562, -7.233742444527586 ], [ 110.376501920431878, -7.233813217336563 ], [ 110.376493450061645, -7.233886047436447 ], [ 110.376549535093829, -7.233970907135331 ], [ 110.37658535588335, -7.234009168184312 ], [ 110.376521864611419, -7.234093068173737 ], [ 110.376535370839918, -7.234126522186071 ], [ 110.37655126643439, -7.234161571635802 ], [ 110.376560752888821, -7.234219698752656 ], [ 110.376564382047476, -7.234286044056323 ], [ 110.376411060645182, -7.234476894395295 ], [ 110.376489090671953, -7.234545464418626 ], [ 110.376476160924767, -7.234672820167139 ], [ 110.376517500865191, -7.234755669483727 ], [ 110.376412233240785, -7.234784184430473 ], [ 110.376173939261463, -7.235317765171312 ], [ 110.376094216394975, -7.235320840325859 ], [ 110.376053630334823, -7.235463018400861 ], [ 110.376016416696245, -7.235471458989222 ], [ 110.375881501047047, -7.235417140456364 ], [ 110.375797157136219, -7.235431177493013 ], [ 110.375651068930111, -7.23551447764228 ], [ 110.375618474858257, -7.235513017707247 ], [ 110.375547592552365, -7.23552848840701 ], [ 110.375483831355467, -7.235518494175142 ], [ 110.375446032823291, -7.235694642242641 ], [ 110.375006174173095, -7.236072621001604 ], [ 110.374954924461008, -7.236239551357297 ], [ 110.375022771878946, -7.236369848377738 ], [ 110.375036694829561, -7.236551020761863 ], [ 110.374545407092583, -7.236539024298464 ], [ 110.373987979853055, -7.236528823419815 ], [ 110.373895018330529, -7.236339994346199 ], [ 110.373834564141376, -7.236329847171999 ], [ 110.373679649429704, -7.236304474005633 ], [ 110.373548503446642, -7.236399902299849 ], [ 110.37277260782048, -7.236318321946476 ], [ 110.372674350719095, -7.236315670611686 ], [ 110.372523138897279, -7.23634565452326 ], [ 110.372399638106458, -7.236378192583474 ], [ 110.372293709490663, -7.236457301131178 ], [ 110.37225709498783, -7.236516377056442 ], [ 110.372209121845287, -7.236590533420282 ], [ 110.372145149514552, -7.236695279255472 ], [ 110.372092925564218, -7.236806750652831 ], [ 110.371963428650432, -7.236923986196042 ], [ 110.371807040704439, -7.237052926014292 ], [ 110.371630538394513, -7.23715164582505 ], [ 110.371371219028745, -7.237230925521723 ], [ 110.371371219028745, -7.237230925521723 ], [ 110.37132, -7.236653 ] ] ] ] } },
{ "type": "Feature", "properties": { "fid": 3, "id": null, "Dusun": "Ngasem" }, "geometry": { "type": "MultiPolygon", "coordinates": [ [ [ [ 110.377763275, -7.223810833000017 ], [ 110.377966717999982, -7.223878646 ], [ 110.378101158999982, -7.223888164000023 ], [ 110.37819633700002, -7.223852471999982 ], [ 110.378317690000017, -7.223792985999986 ], [ 110.378441421, -7.223628803999981 ], [ 110.378540167999972, -7.223390857000019 ], [ 110.378637965, -7.223143978 ], [ 110.378738616000021, -7.223002370000011 ], [ 110.378710063000028, -7.22284627800002 ], [ 110.378852828999982, -7.222909094999973 ], [ 110.379057872, -7.223010450999986 ], [ 110.379366211, -7.22329896000002 ], [ 110.379645797000023, -7.223334652 ], [ 110.380038408000019, -7.22330490899998 ], [ 110.380312047000018, -7.223411984999976 ], [ 110.380591633, -7.223774853 ], [ 110.380680863, -7.224042542 ], [ 110.380906912, -7.224119874 ], [ 110.381138909000015, -7.224209105 ], [ 110.38148988, -7.224452999 ], [ 110.381721877000018, -7.22472068799998 ], [ 110.381632647, -7.225125197000013 ], [ 110.381698083, -7.225309605 ], [ 110.381882491, -7.225523755999975 ], [ 110.38218587199998, -7.225654626999982 ], [ 110.382346486000017, -7.225779548 ], [ 110.382489253000017, -7.22595800800002 ], [ 110.382672, -7.227228 ], [ 110.383013, -7.227794 ], [ 110.383078, -7.227947 ], [ 110.38312, -7.228236001000029 ], [ 110.383148, -7.228294000999988 ], [ 110.383278999000026, -7.228561 ], [ 110.383385840000017, -7.228913267 ], [ 110.383460792999983, -7.228991787999981 ], [ 110.383466111847738, -7.228993883288059 ], [ 110.383250291104503, -7.229578032546711 ], [ 110.383273515297304, -7.229597800243465 ], [ 110.383344413423174, -7.229610666681674 ], [ 110.383374011955866, -7.229644954965816 ], [ 110.383416393016248, -7.229683323888422 ], [ 110.38343843814171, -7.229715280037914 ], [ 110.383447115534238, -7.229746057150141 ], [ 110.383467982372011, -7.229789621281063 ], [ 110.383485948351321, -7.229829118136633 ], [ 110.383492888222477, -7.229855249068066 ], [ 110.383499808415237, -7.229895891942947 ], [ 110.383502406833188, -7.229908665990624 ], [ 110.383514582900531, -7.229931321130113 ], [ 110.383548523709308, -7.229978385811235 ], [ 110.383573766655161, -7.230009765801197 ], [ 110.383590292844303, -7.230039392567078 ], [ 110.383615513365726, -7.230087316171011 ], [ 110.383628567257915, -7.230105618903991 ], [ 110.383638991248034, -7.23013436669947 ], [ 110.383656366928506, -7.230180538258342 ], [ 110.383672015313735, -7.230214517426269 ], [ 110.38369898794042, -7.23025634836807 ], [ 110.383659961058015, -7.230316375160058 ], [ 110.383661653727998, -7.230354108571375 ], [ 110.383671488972936, -7.230388370119133 ], [ 110.383678205458921, -7.230436365448513 ], [ 110.383673497805475, -7.230478734036552 ], [ 110.383681445679031, -7.230511686954989 ], [ 110.383671743666156, -7.230593521348905 ], [ 110.383705639677672, -7.230673673253897 ], [ 110.383715181145163, -7.230710256319118 ], [ 110.383715977508459, -7.23076598336126 ], [ 110.383735080516701, -7.230824347308866 ], [ 110.383711342884013, -7.230968854436717 ], [ 110.383633751091111, -7.231283949501869 ], [ 110.383675553401417, -7.231320576193188 ], [ 110.383563546833571, -7.231616468895427 ], [ 110.383444711246085, -7.231804383268274 ], [ 110.383345943774998, -7.231767679482545 ], [ 110.38326105686356, -7.231782657067363 ], [ 110.383221495371373, -7.231808144594405 ], [ 110.382877493295979, -7.23215190278487 ], [ 110.382833931388262, -7.232126883211334 ], [ 110.382778172910506, -7.232094300893207 ], [ 110.382724682785707, -7.2321035161053 ], [ 110.382699125507003, -7.232089550000513 ], [ 110.382678298869905, -7.232016381478665 ], [ 110.382665528118125, -7.232003593649436 ], [ 110.382660898400957, -7.231988494932917 ], [ 110.382669108818575, -7.231935102017294 ], [ 110.382655969999917, -7.231907995215673 ], [ 110.382659098528606, -7.231887102221518 ], [ 110.382651416501986, -7.231836783664719 ], [ 110.382611201895457, -7.231772489551042 ], [ 110.382603126574779, -7.231726427304539 ], [ 110.382592308141113, -7.231702806516942 ], [ 110.382586204581401, -7.231631592865902 ], [ 110.382573074711871, -7.231597907316639 ], [ 110.382556048113017, -7.231580082904879 ], [ 110.382554594771179, -7.231508875553352 ], [ 110.382526746070567, -7.231470139247971 ], [ 110.382489657938621, -7.231386500073685 ], [ 110.38242538786038, -7.231343844559096 ], [ 110.382340978980267, -7.23129226107315 ], [ 110.38229918862298, -7.231246927105109 ], [ 110.382180644582675, -7.231220064418363 ], [ 110.382084127498018, -7.231238508896647 ], [ 110.381970314190298, -7.231152443751623 ], [ 110.381929658021505, -7.231128008521305 ], [ 110.381783204902916, -7.231106912675445 ], [ 110.381736775467871, -7.231053445669141 ], [ 110.381727596644993, -7.230964039516048 ], [ 110.381721883370744, -7.230890891464044 ], [ 110.38150462766464, -7.230786691056234 ], [ 110.381384944164523, -7.230742992751612 ], [ 110.381251559632744, -7.230729460703807 ], [ 110.381133777874169, -7.230783285311231 ], [ 110.381018590487642, -7.230852786328787 ], [ 110.38096105014138, -7.230848354598474 ], [ 110.380924508050057, -7.230790837597276 ], [ 110.380804669217355, -7.23075454003469 ], [ 110.380792495644812, -7.230730143400927 ], [ 110.380745462162068, -7.230693509361423 ], [ 110.380713219177593, -7.230680404791031 ], [ 110.380701071708884, -7.230636852400681 ], [ 110.380686258681408, -7.230629866533289 ], [ 110.380679334388617, -7.230592416263125 ], [ 110.380657572160032, -7.230566265163258 ], [ 110.380576074429484, -7.230546998634805 ], [ 110.380518978392971, -7.23053647243206 ], [ 110.380382016910929, -7.230588529341301 ], [ 110.380141044888234, -7.230825907636524 ], [ 110.380107824324057, -7.230890295563678 ], [ 110.380058752557645, -7.231069596653831 ], [ 110.380018411761853, -7.23124020243431 ], [ 110.380002560539452, -7.23135511559529 ], [ 110.380012945121905, -7.231412597082396 ], [ 110.380079076405366, -7.231511078123349 ], [ 110.380012804975138, -7.231515341567468 ], [ 110.379881187485211, -7.231484687394968 ], [ 110.379793498740284, -7.231423037371872 ], [ 110.379741851509294, -7.231359694947537 ], [ 110.379686763375815, -7.23126209961195 ], [ 110.379665898443974, -7.231217374381104 ], [ 110.379646788434414, -7.23116452484105 ], [ 110.379370870296299, -7.231026575858461 ], [ 110.379209909294076, -7.2309880450943 ], [ 110.379128766012727, -7.23109938640871 ], [ 110.379103978663622, -7.23108929101978 ], [ 110.379103232174202, -7.231068392783875 ], [ 110.379106359797873, -7.231048273796348 ], [ 110.379094768117952, -7.231023490931636 ], [ 110.37907231010476, -7.231010302830133 ], [ 110.379048297795819, -7.231000208494441 ], [ 110.37904522303505, -7.230981628999962 ], [ 110.37904524523826, -7.230965375637738 ], [ 110.379039854891786, -7.230939827249027 ], [ 110.379030570345066, -7.230928205034338 ], [ 110.379027500871857, -7.230905755691622 ], [ 110.379018218440748, -7.230892585537497 ], [ 110.379002731510681, -7.230882502814535 ], [ 110.378995001262979, -7.230867786832561 ], [ 110.378991919103285, -7.23085462512527 ], [ 110.378986518186906, -7.230836816432428 ], [ 110.378988101032746, -7.230812825485857 ], [ 110.378991225486658, -7.230795028408067 ], [ 110.379003643999255, -7.23078188781872 ], [ 110.379013146355035, -7.230775902488586 ], [ 110.379023255889621, -7.230750955694083 ], [ 110.37900322529002, -7.230725924839978 ], [ 110.378986045557525, -7.230694254617477 ], [ 110.378945455755115, -7.23065292085941 ], [ 110.378875915403569, -7.230623243213162 ], [ 110.378879395716822, -7.230597104933088 ], [ 110.378715486957432, -7.230557495033391 ], [ 110.37852881956006, -7.23056717320202 ], [ 110.378531125613534, -7.230581107824213 ], [ 110.378168748911818, -7.230616216289364 ], [ 110.37805709754106, -7.230650118685046 ], [ 110.378047755843369, -7.230680290805468 ], [ 110.377976400357937, -7.230718504999571 ], [ 110.377738448853634, -7.230686296481247 ], [ 110.377695631787901, -7.230517866189575 ], [ 110.377389931394973, -7.230432367236511 ], [ 110.377112020387344, -7.230355862009226 ], [ 110.376783947547182, -7.23023540390134 ], [ 110.376414915877916, -7.229899946816889 ], [ 110.376415038721021, -7.229810387514573 ], [ 110.376143857792144, -7.229622538676361 ], [ 110.37608767990092, -7.229605744030231 ], [ 110.376047068228871, -7.229573447041655 ], [ 110.376072246424741, -7.229524522326115 ], [ 110.376030507829441, -7.229442070493726 ], [ 110.376250662361585, -7.229344453401626 ], [ 110.376169419380162, -7.229294188939696 ], [ 110.376137231309031, -7.229223094383743 ], [ 110.376146238842438, -7.229194447679442 ], [ 110.376178561260787, -7.229167624065953 ], [ 110.376158882810785, -7.229129982163109 ], [ 110.375907659884305, -7.229212033050575 ], [ 110.375945129683487, -7.229355379484157 ], [ 110.375963007105042, -7.22939839249783 ], [ 110.375833773850758, -7.229464489588612 ], [ 110.375754666653322, -7.229600511657464 ], [ 110.375670343276724, -7.229616516889656 ], [ 110.375492875916393, -7.229541043875527 ], [ 110.375419154458967, -7.229673490875537 ], [ 110.375267643266724, -7.229635668305162 ], [ 110.375118431396274, -7.229556203693925 ], [ 110.374963860815086, -7.229460610990614 ], [ 110.374771311495309, -7.22926600297081 ], [ 110.374580383512267, -7.229196780325744 ], [ 110.374426307793925, -7.22906760334727 ], [ 110.374382322927488, -7.229097097608641 ], [ 110.374189533648575, -7.229077129946384 ], [ 110.374148273746542, -7.229081551282142 ], [ 110.374083740897575, -7.229053699267884 ], [ 110.37406400838438, -7.229055463366417 ], [ 110.37385309856343, -7.229169212769823 ], [ 110.37381638319296, -7.229129756195223 ], [ 110.373792234414964, -7.229082256529774 ], [ 110.373786890497101, -7.229055381361012 ], [ 110.373776138521578, -7.22904820183869 ], [ 110.373744816423738, -7.228999796724298 ], [ 110.373776243367672, -7.22897207646741 ], [ 110.373750329331884, -7.228903975707071 ], [ 110.373722231850834, -7.228901847392877 ], [ 110.373689920014314, -7.228920909019248 ], [ 110.373672021446808, -7.228893419540505 ], [ 110.373624171309572, -7.2289076833137 ], [ 110.373590662063989, -7.228927937413302 ], [ 110.373511820056777, -7.228871108115356 ], [ 110.373473873192921, -7.228857622058428 ], [ 110.373349589056545, -7.228803118539769 ], [ 110.373579530246843, -7.228545503363479 ], [ 110.373780878218483, -7.228211424728804 ], [ 110.37383847192433, -7.228068208727126 ], [ 110.373855419703119, -7.227917772148686 ], [ 110.373807809742189, -7.227757693914292 ], [ 110.373735033012295, -7.227638181391764 ], [ 110.373519561658966, -7.227374580695426 ], [ 110.373203528988867, -7.22707753887605 ], [ 110.373885116631541, -7.226494149555927 ], [ 110.374004626261197, -7.226542078640326 ], [ 110.374241448571169, -7.226206854232907 ], [ 110.374301275644243, -7.226178277286267 ], [ 110.374345948842318, -7.226155252132322 ], [ 110.374476889212005, -7.226006564016282 ], [ 110.374562476289199, -7.225795719112536 ], [ 110.374885067868306, -7.225986425431381 ], [ 110.374965031921775, -7.225806620009452 ], [ 110.375059091193265, -7.225811525394991 ], [ 110.375100745158818, -7.225665102983799 ], [ 110.375188455491667, -7.225649301454576 ], [ 110.3755759282474, -7.225614008258193 ], [ 110.375583656764775, -7.225210404142981 ], [ 110.375746254827874, -7.225228140538848 ], [ 110.375774568580184, -7.224927259438308 ], [ 110.37609941909345, -7.224052011088782 ], [ 110.37753957586078, -7.224094313179768 ], [ 110.377627646, -7.223760863999984 ], [ 110.377763275, -7.223810833000017 ] ] ] ] } },
{ "type": "Feature", "properties": { "fid": 4, "id": null, "Dusun": "Jombor" }, "geometry": { "type": "MultiPolygon", "coordinates": [ [ [ [ 110.386658789000023, -7.230162483000021 ], [ 110.386648080999976, -7.230283835000018 ], [ 110.386885846999974, -7.230635924000017 ], [ 110.387247705, -7.230912013000018 ], [ 110.387394041999983, -7.230854906999974 ], [ 110.38769742300002, -7.230872753000032 ], [ 110.387818776000017, -7.230915582000026 ], [ 110.387925852000023, -7.231040504000013 ], [ 110.387929421000038, -7.231158287000033 ], [ 110.387905, -7.231389 ], [ 110.387883961999989, -7.23164034899998 ], [ 110.388270692999981, -7.232020771 ], [ 110.388698996000016, -7.232344377 ], [ 110.388975013999982, -7.232782198999976 ], [ 110.389441388000023, -7.232944001000019 ], [ 110.389926797999976, -7.233105803999984 ], [ 110.390060048, -7.233267608999989 ], [ 110.390074504999973, -7.233481832 ], [ 110.390063796999982, -7.233542506999976 ], [ 110.390107637000028, -7.233933857000011 ], [ 110.390098119000015, -7.234324088 ], [ 110.389969109999981, -7.234988209999983 ], [ 110.389944276999984, -7.23501 ], [ 110.389390277000018, -7.235335001000017 ], [ 110.388656277, -7.235686000999974 ], [ 110.387893276999989, -7.236023 ], [ 110.387328277, -7.236332 ], [ 110.386975276999976, -7.236627 ], [ 110.386692276000019, -7.237204001 ], [ 110.386611022000011, -7.237489955 ], [ 110.386385526000026, -7.237474971999972 ], [ 110.385882270000025, -7.237182297 ], [ 110.385632425999972, -7.236968145 ], [ 110.385391506000033, -7.237324946 ], [ 110.385234461, -7.237667588000022 ], [ 110.385296327, -7.237938847000016 ], [ 110.385210667000024, -7.238205345999964 ], [ 110.384953685000028, -7.238838284 ], [ 110.384858506, -7.239004845000011 ], [ 110.38476689700002, -7.239292046 ], [ 110.384738344000027, -7.239563305 ], [ 110.384806158, -7.239788165 ], [ 110.384891819000018, -7.239973761999972 ], [ 110.384977478999986, -7.240102252 ], [ 110.385246656, -7.240312835 ], [ 110.386328570999979, -7.240878947 ], [ 110.38622572700001, -7.240875114 ], [ 110.386047266, -7.240931627000011 ], [ 110.385886653999989, -7.241011932999978 ], [ 110.385705219999977, -7.241214187000019 ], [ 110.385691397000016, -7.241242227999983 ], [ 110.385601118000011, -7.241425364 ], [ 110.385567913, -7.241478859999976 ], [ 110.385494042, -7.241597875000031 ], [ 110.385470248, -7.241701975999988 ], [ 110.385482145000026, -7.24185664100003 ], [ 110.385494042, -7.241945871 ], [ 110.385527143, -7.242000487999976 ], [ 110.385553529, -7.242044024 ], [ 110.385532709000017, -7.242162996999972 ], [ 110.385476196000013, -7.242204639000025 ], [ 110.385450645, -7.24220535299998 ], [ 110.385340209999981, -7.242208445000021 ], [ 110.385239320999972, -7.242198927 ], [ 110.385073711000018, -7.24220083 ], [ 110.384862414999986, -7.242210348 ], [ 110.384759367000015, -7.242214991000029 ], [ 110.384651118000022, -7.242219866000024 ], [ 110.384485508000012, -7.242212252 ], [ 110.384394137000015, -7.242145627000014 ], [ 110.384316090000027, -7.242033316000012 ], [ 110.384196165, -7.24186960999998 ], [ 110.384000097000012, -7.241679254000013 ], [ 110.383849715, -7.241568847 ], [ 110.384231555276301, -7.240044437875214 ], [ 110.384425272558843, -7.23944295131516 ], [ 110.384663874244907, -7.23840672522226 ], [ 110.384645232061317, -7.238305185530097 ], [ 110.384641649473679, -7.238237504355351 ], [ 110.384641466623648, -7.238071167095363 ], [ 110.384648041428619, -7.238039648049389 ], [ 110.384706450068705, -7.2379185075147 ], [ 110.384747376464588, -7.237844091662575 ], [ 110.384780139221675, -7.237768577606518 ], [ 110.384909835771751, -7.237260772574658 ], [ 110.385063730993863, -7.236971793138975 ], [ 110.385120902848868, -7.236825827135955 ], [ 110.385131900497782, -7.23674394182964 ], [ 110.385133452147286, -7.236670016351823 ], [ 110.38514587192283, -7.236609876367806 ], [ 110.38527301568115, -7.236512927449639 ], [ 110.385205723737528, -7.236360632793442 ], [ 110.385153676242723, -7.236206184367918 ], [ 110.385105892236481, -7.236119146246777 ], [ 110.384988493362982, -7.235987440155278 ], [ 110.384805789266039, -7.235844411752086 ], [ 110.38467591527936, -7.235813795566068 ], [ 110.384490093151271, -7.235829489672148 ], [ 110.384112611163246, -7.235884062720971 ], [ 110.38385789267673, -7.235860525286106 ], [ 110.383574552018899, -7.235802884320902 ], [ 110.383618772239529, -7.235607661261491 ], [ 110.383679215180891, -7.235290968899047 ], [ 110.383787318296939, -7.235277661414772 ], [ 110.38387457149976, -7.235285729364548 ], [ 110.384090680301625, -7.235330969289237 ], [ 110.384220186015781, -7.235340317365798 ], [ 110.384448929453669, -7.235325949718545 ], [ 110.384537129425979, -7.235313226693682 ], [ 110.384502365506449, -7.235208607547493 ], [ 110.384463036104222, -7.23508380163524 ], [ 110.384404462788567, -7.234925029624753 ], [ 110.38434775772059, -7.234743327639019 ], [ 110.384305692580099, -7.234603841223969 ], [ 110.384270816871037, -7.234581778895414 ], [ 110.384164306626445, -7.234549529441243 ], [ 110.384100957845462, -7.234525594012087 ], [ 110.383806549512215, -7.234192216117466 ], [ 110.384027144653999, -7.234089776837087 ], [ 110.384642570174378, -7.234100698748916 ], [ 110.385030023251588, -7.233896205346335 ], [ 110.385197339690819, -7.233964540668438 ], [ 110.385738700352533, -7.234064339245991 ], [ 110.385831596370508, -7.234144957559096 ], [ 110.385941079617496, -7.23418638363366 ], [ 110.386000929613687, -7.234250445975094 ], [ 110.386048395709921, -7.234302108070747 ], [ 110.386089722844133, -7.2343083555353 ], [ 110.386108307087611, -7.234320764128013 ], [ 110.386440700067496, -7.234203568137999 ], [ 110.386464519536659, -7.234165417595141 ], [ 110.386469649269756, -7.234097314965375 ], [ 110.386480938564048, -7.234059405538311 ], [ 110.386507431358424, -7.234026450654194 ], [ 110.386558920500789, -7.23399256195847 ], [ 110.386567076055826, -7.233979512160772 ], [ 110.386565077625434, -7.233952807434881 ], [ 110.386545605781151, -7.233844376759904 ], [ 110.386534067371031, -7.233779782932728 ], [ 110.386539946784552, -7.233730450131135 ], [ 110.386550914353222, -7.233679672982104 ], [ 110.386545142699561, -7.233649190062205 ], [ 110.386517104987306, -7.233606583850469 ], [ 110.386468244626741, -7.233559112274865 ], [ 110.386420375937305, -7.233494711391914 ], [ 110.38641119063513, -7.23348115451239 ], [ 110.386400089291243, -7.233451631879365 ], [ 110.386387032713756, -7.233435167391137 ], [ 110.386361375871445, -7.233423039526512 ], [ 110.386313907335193, -7.233421040667547 ], [ 110.386278057853801, -7.233423894778531 ], [ 110.386214607402991, -7.233419455720473 ], [ 110.386157619098739, -7.23341244545262 ], [ 110.38612758023325, -7.233416919821175 ], [ 110.386095599848304, -7.23342429396687 ], [ 110.3860633043723, -7.233425862895805 ], [ 110.38603230672841, -7.233422918734637 ], [ 110.386000021710771, -7.233416747953398 ], [ 110.385971630627964, -7.233396715419475 ], [ 110.385918488111358, -7.233291996343851 ], [ 110.385902066256733, -7.233256661741502 ], [ 110.385878903347248, -7.233191326639909 ], [ 110.385853834881445, -7.233102286077862 ], [ 110.385836489349813, -7.233033572687919 ], [ 110.385841877885241, -7.232989076562417 ], [ 110.385861801655835, -7.232942181363959 ], [ 110.385870076968573, -7.232912201102712 ], [ 110.385885669578698, -7.232844257702267 ], [ 110.385956586586175, -7.232700200984755 ], [ 110.38594700449886, -7.232621823408762 ], [ 110.385908374190791, -7.232531797109796 ], [ 110.385854266681235, -7.232424335581217 ], [ 110.385895245406971, -7.232389562064321 ], [ 110.385838221066223, -7.232289836324218 ], [ 110.385989601658238, -7.232106221954107 ], [ 110.386061334390419, -7.232075359711978 ], [ 110.38612533504012, -7.232030942532113 ], [ 110.386144749507011, -7.232002428463455 ], [ 110.386156937855745, -7.231944396976665 ], [ 110.38606037649491, -7.23170868916988 ], [ 110.386004351043226, -7.231586713101188 ], [ 110.385996859453073, -7.231395144928934 ], [ 110.386004690836188, -7.231335172645358 ], [ 110.385923403595243, -7.231267340581786 ], [ 110.386086653647922, -7.230902826160021 ], [ 110.386100576548401, -7.230815773053465 ], [ 110.386038149648257, -7.230771064644956 ], [ 110.385990207613418, -7.230761204483554 ], [ 110.385966285848667, -7.230719813127334 ], [ 110.38596088784449, -7.23068171191835 ], [ 110.38597076450219, -7.230631658905118 ], [ 110.386014070390772, -7.23057729732743 ], [ 110.386043226294703, -7.230509130308841 ], [ 110.386033151970437, -7.230436556857427 ], [ 110.385983223748056, -7.230283388255782 ], [ 110.385916465299118, -7.230217994435893 ], [ 110.38586332811559, -7.230109566762331 ], [ 110.385883232129217, -7.230077183496149 ], [ 110.385831231567195, -7.229952516751091 ], [ 110.385937812, -7.229923347000012 ], [ 110.386166240000023, -7.229909071000013 ], [ 110.386341131, -7.229937624 ], [ 110.38656599, -7.230044699000016 ], [ 110.386646129999974, -7.230146414999977 ], [ 110.386658789000023, -7.230162483000021 ] ] ] ] } },
{ "type": "Feature", "properties": { "fid": 5, "id": null, "Dusun": "Jetis" }, "geometry": { "type": "MultiPolygon", "coordinates": [ [ [ [ 110.383678395000018, -7.241563134999981 ], [ 110.383528012999989, -7.241593592000012 ], [ 110.383470906000014, -7.241620242 ], [ 110.383432834000018, -7.241671638 ], [ 110.383383341000012, -7.241700192999987 ], [ 110.383282452, -7.241702095999976 ], [ 110.383173949000039, -7.241702095999982 ], [ 110.38311874599998, -7.241681157000018 ], [ 110.383017855999981, -7.241601205999984 ], [ 110.382888413999979, -7.241464149000021 ], [ 110.382772295999985, -7.241296635000034 ], [ 110.382607, -7.241102 ], [ 110.382518684, -7.24099867 ], [ 110.382500095000012, -7.240936891999969 ], [ 110.382500086, -7.240936862 ], [ 110.382378513, -7.240875066 ], [ 110.382368359, -7.240875663 ], [ 110.382292055999983, -7.240880151 ], [ 110.38225716, -7.240882204 ], [ 110.382228479, -7.24092607 ], [ 110.382216708999977, -7.240944071 ], [ 110.382202482000025, -7.240965786 ], [ 110.382171500000027, -7.24101307500001 ], [ 110.382166534000021, -7.241038333999989 ], [ 110.382146365999986, -7.241140959 ], [ 110.382107, -7.24119 ], [ 110.382063304, -7.241237518999982 ], [ 110.382056619000025, -7.241237651000012 ], [ 110.381981143000019, -7.241239124 ], [ 110.381914097, -7.241208647000013 ], [ 110.381902621, -7.241203430999972 ], [ 110.381781268, -7.241098734999973 ], [ 110.381750548000014, -7.241055580000032 ], [ 110.38168133, -7.24095834700001 ], [ 110.381521611999972, -7.240769789 ], [ 110.38151001, -7.240756092000019 ], [ 110.381508954000026, -7.240753706000011 ], [ 110.381400553999981, -7.240508628999976 ], [ 110.381295857999987, -7.240242129000024 ], [ 110.381222095, -7.240047012999974 ], [ 110.381145951, -7.239949454999985 ], [ 110.381067429999973, -7.239947077000015 ], [ 110.380953216000023, -7.239985148000018 ], [ 110.380884211000023, -7.240025597999983 ], [ 110.380841381, -7.240083 ], [ 110.380746203, -7.240161226999982 ], [ 110.380691475, -7.240201678 ], [ 110.380639127, -7.240273062000036 ], [ 110.380636746999983, -7.240320650999987 ], [ 110.380638177, -7.240354259000013 ], [ 110.380641506000018, -7.240432487000021 ], [ 110.380626386000017, -7.240462725999977 ], [ 110.38062009100004, -7.240475316000023 ], [ 110.380553465, -7.24050387 ], [ 110.380420333000018, -7.240497987000027 ], [ 110.380349949, -7.240481336000014 ], [ 110.38033455599998, -7.240477696000031 ], [ 110.380251275, -7.240465798 ], [ 110.380196255999977, -7.240485665999981 ], [ 110.38016561400002, -7.240496732 ], [ 110.380120128999977, -7.240522972 ], [ 110.38010374800001, -7.240532422999989 ], [ 110.380056159, -7.240603808 ], [ 110.379932091, -7.240716836 ], [ 110.379930237, -7.24071852499997 ], [ 110.379838, -7.240766 ], [ 110.379554, -7.240816 ], [ 110.379399087000024, -7.24081723 ], [ 110.379366263, -7.240817498000019 ], [ 110.379230485999983, -7.240725159000022 ], [ 110.37916756300001, -7.240676028 ], [ 110.379056784999989, -7.240589530000023 ], [ 110.378953712, -7.240528048999968 ], [ 110.378921155, -7.240508628999973 ], [ 110.378851456, -7.240437821999986 ], [ 110.378779521000013, -7.240364745000015 ], [ 110.37877125, -7.240356342999968 ], [ 110.378721281000026, -7.240254026 ], [ 110.378678450999985, -7.240132674 ], [ 110.378667152, -7.240119427000022 ], [ 110.378609446999974, -7.240051772000018 ], [ 110.378584147000026, -7.240043339000017 ], [ 110.378530923000028, -7.240025597999983 ], [ 110.378414330999988, -7.240023219000021 ], [ 110.378212551999979, -7.240060337999974 ], [ 110.378022671999986, -7.240078897999973 ], [ 110.377928445, -7.240080326999989 ], [ 110.377897176, -7.240076523000034 ], [ 110.377822797000022, -7.240067475999981 ], [ 110.3777043, -7.24008318099998 ], [ 110.377504424999984, -7.240084609 ], [ 110.377456637000023, -7.240071490999973 ], [ 110.377431613000013, -7.240064621999982 ], [ 110.377318827000011, -7.239998948999986 ], [ 110.37714465, -7.239886161000022 ], [ 110.377053279, -7.239847613999983 ], [ 110.377041857, -7.239826198999987 ], [ 110.377056133999986, -7.239791936000016 ], [ 110.377047568000023, -7.239767664999982 ], [ 110.377029009000012, -7.239729117000029 ], [ 110.377026152999974, -7.239649166999985 ], [ 110.377031864, -7.239587777 ], [ 110.377047568000023, -7.239524959 ], [ 110.377041857, -7.239480700999988 ], [ 110.376999502999979, -7.239438346999976 ], [ 110.376970949999986, -7.239390758000019 ], [ 110.376970949999986, -7.239336031 ], [ 110.376975709000021, -7.239214678 ], [ 110.376978087, -7.23910284400001 ], [ 110.376887131999979, -7.238982944999977 ], [ 110.376873392, -7.238964834 ], [ 110.37696591045335, -7.238781927828842 ], [ 110.377178096124737, -7.238593562797901 ], [ 110.377319157278322, -7.238609477 ], [ 110.37752129904581, -7.23868049913713 ], [ 110.377697354425763, -7.23878776541043 ], [ 110.377795336947187, -7.238867715035564 ], [ 110.377960413840668, -7.239033014013595 ], [ 110.3784268863878, -7.239305750140052 ], [ 110.378739682582548, -7.23904677593096 ], [ 110.378774273362552, -7.238990589314794 ], [ 110.378790813121, -7.238850934344176 ], [ 110.378770995233396, -7.238731183702238 ], [ 110.378730688805106, -7.238649952477501 ], [ 110.378667889663006, -7.238578440775935 ], [ 110.378627822120563, -7.238488593398879 ], [ 110.378632735686821, -7.238382481456637 ], [ 110.378805547507639, -7.238039192118263 ], [ 110.378869124526872, -7.237873978630861 ], [ 110.37888055260828, -7.237736244041039 ], [ 110.378808252674588, -7.237555539636616 ], [ 110.378767519338041, -7.237454467276491 ], [ 110.378754481756673, -7.237274864075838 ], [ 110.378809828542231, -7.237150454225021 ], [ 110.378828346311721, -7.237058646028941 ], [ 110.378738565850952, -7.236958527141218 ], [ 110.378712085938048, -7.23689522797449 ], [ 110.378728602011719, -7.236772805900666 ], [ 110.378755257776419, -7.23670753847126 ], [ 110.378857594068279, -7.236592376042138 ], [ 110.37904370835804, -7.236483450040966 ], [ 110.379209287838805, -7.236446942366582 ], [ 110.379450694108172, -7.236253400678813 ], [ 110.379859778758373, -7.235982538895778 ], [ 110.380336289556283, -7.235719931406301 ], [ 110.380649203154377, -7.235538730737499 ], [ 110.380973347790686, -7.235363667326477 ], [ 110.381049510978343, -7.235334180024047 ], [ 110.381745853660888, -7.235337166372466 ], [ 110.382264858694654, -7.235382766853921 ], [ 110.382287529407066, -7.235241986200442 ], [ 110.382281523576594, -7.235150144537204 ], [ 110.382236753816841, -7.235011313176893 ], [ 110.382205653708496, -7.234776160186764 ], [ 110.382174672418998, -7.234516263324048 ], [ 110.382193222667141, -7.234399966019993 ], [ 110.382253347540413, -7.234267399126618 ], [ 110.382476732671435, -7.234300353876471 ], [ 110.382580286128231, -7.234290970743992 ], [ 110.383196957215773, -7.234314480968496 ], [ 110.38346218353405, -7.234302141988826 ], [ 110.383806549512215, -7.234192216117466 ], [ 110.384100957845462, -7.234525594012087 ], [ 110.384164306626445, -7.234549529441243 ], [ 110.384270816871037, -7.234581778895414 ], [ 110.384305692580099, -7.234603841223969 ], [ 110.38434775772059, -7.234743327639019 ], [ 110.384404462788567, -7.234925029624753 ], [ 110.384463036104222, -7.23508380163524 ], [ 110.384502365506449, -7.235208607547493 ], [ 110.384537129425979, -7.235313226693682 ], [ 110.384448929453669, -7.235325949718545 ], [ 110.384220186015781, -7.235340317365798 ], [ 110.384090680301625, -7.235330969289237 ], [ 110.38387457149976, -7.235285729364548 ], [ 110.383787318296939, -7.235277661414772 ], [ 110.383679215180891, -7.235290968899047 ], [ 110.383618772239529, -7.235607661261491 ], [ 110.383574552018899, -7.235802884320902 ], [ 110.38385789267673, -7.235860525286106 ], [ 110.384112611163246, -7.235884062720971 ], [ 110.384490093151271, -7.235829489672148 ], [ 110.38467591527936, -7.235813795566068 ], [ 110.384805789266039, -7.235844411752086 ], [ 110.384988493362982, -7.235987440155278 ], [ 110.385105892236481, -7.236119146246777 ], [ 110.385153676242723, -7.236206184367918 ], [ 110.385205723737528, -7.236360632793442 ], [ 110.38527301568115, -7.236512927449639 ], [ 110.38514587192283, -7.236609876367806 ], [ 110.385133452147286, -7.236670016351823 ], [ 110.385131900497782, -7.23674394182964 ], [ 110.385120902848868, -7.236825827135955 ], [ 110.385063730993863, -7.236971793138975 ], [ 110.384909835771751, -7.237260772574658 ], [ 110.384780139221675, -7.237768577606518 ], [ 110.384747376464588, -7.237844091662575 ], [ 110.384706450068705, -7.2379185075147 ], [ 110.384648041428619, -7.238039648049389 ], [ 110.384641466623648, -7.238071167095363 ], [ 110.384641649473679, -7.238237504355351 ], [ 110.384645232061317, -7.238305185530097 ], [ 110.384663874244907, -7.23840672522226 ], [ 110.384425272558843, -7.23944295131516 ], [ 110.384231555276301, -7.240044437875214 ], [ 110.383849715, -7.241568847 ], [ 110.383678395000018, -7.241563134999981 ] ] ] ] } },
{ "type": "Feature", "properties": { "fid": 6, "id": null, "Dusun": "Krajan" }, "geometry": { "type": "MultiPolygon", "coordinates": [ [ [ [ 110.383578576, -7.22903818700002 ], [ 110.383632114000022, -7.229066741 ], [ 110.383767743000035, -7.229084587 ], [ 110.383985463999977, -7.22907031 ], [ 110.384149647000015, -7.22909529600003 ], [ 110.384260292000022, -7.229145263000026 ], [ 110.38432, -7.229230001000028 ], [ 110.384454, -7.22933 ], [ 110.384506, -7.229386001000034 ], [ 110.384936, -7.229694 ], [ 110.385092999, -7.229781 ], [ 110.385070498, -7.229923347 ], [ 110.385141882000028, -7.230026854000015 ], [ 110.385184713, -7.23004827 ], [ 110.385298927, -7.230083961 ], [ 110.385598738999988, -7.230016147000015 ], [ 110.385831231567195, -7.229952516751091 ], [ 110.385883232129217, -7.230077183496149 ], [ 110.38586332811559, -7.230109566762331 ], [ 110.385916465299118, -7.230217994435893 ], [ 110.385983223748056, -7.230283388255782 ], [ 110.386033151970437, -7.230436556857427 ], [ 110.386043226294703, -7.230509130308841 ], [ 110.386014070390772, -7.23057729732743 ], [ 110.38597076450219, -7.230631658905118 ], [ 110.38596088784449, -7.23068171191835 ], [ 110.385966285848667, -7.230719813127334 ], [ 110.385990207613418, -7.230761204483554 ], [ 110.386038149648257, -7.230771064644956 ], [ 110.386100576548401, -7.230815773053465 ], [ 110.386086653647922, -7.230902826160021 ], [ 110.385923403595243, -7.231267340581786 ], [ 110.386004690836188, -7.231335172645358 ], [ 110.385996859453073, -7.231395144928934 ], [ 110.386004351043226, -7.231586713101188 ], [ 110.38606037649491, -7.23170868916988 ], [ 110.386156937855745, -7.231944396976665 ], [ 110.386144749507011, -7.232002428463455 ], [ 110.38612533504012, -7.232030942532113 ], [ 110.386061334390419, -7.232075359711978 ], [ 110.385989601658238, -7.232106221954107 ], [ 110.385838221066223, -7.232289836324218 ], [ 110.385895245406971, -7.232389562064321 ], [ 110.385854266681235, -7.232424335581217 ], [ 110.385908374190791, -7.232531797109796 ], [ 110.38594700449886, -7.232621823408762 ], [ 110.385956586586175, -7.232700200984755 ], [ 110.385885669578698, -7.232844257702267 ], [ 110.385870076968573, -7.232912201102712 ], [ 110.385861801655835, -7.232942181363959 ], [ 110.385841877885241, -7.232989076562417 ], [ 110.385836489349813, -7.233033572687919 ], [ 110.385853834881445, -7.233102286077862 ], [ 110.385878903347248, -7.233191326639909 ], [ 110.385902066256733, -7.233256661741502 ], [ 110.385918488111358, -7.233291996343851 ], [ 110.385971630627964, -7.233396715419475 ], [ 110.386000021710771, -7.233416747953398 ], [ 110.38603230672841, -7.233422918734637 ], [ 110.3860633043723, -7.233425862895805 ], [ 110.386095599848304, -7.23342429396687 ], [ 110.38612758023325, -7.233416919821175 ], [ 110.386157619098739, -7.23341244545262 ], [ 110.386214607402991, -7.233419455720473 ], [ 110.386278057853801, -7.233423894778531 ], [ 110.386313907335193, -7.233421040667547 ], [ 110.386361375871445, -7.233423039526512 ], [ 110.386387032713756, -7.233435167391137 ], [ 110.386400089291243, -7.233451631879365 ], [ 110.38641119063513, -7.23348115451239 ], [ 110.386420375937305, -7.233494711391914 ], [ 110.386468244626741, -7.233559112274865 ], [ 110.386517104987306, -7.233606583850469 ], [ 110.386545142699561, -7.233649190062205 ], [ 110.386550914353222, -7.233679672982104 ], [ 110.386539946784552, -7.233730450131135 ], [ 110.386534067371031, -7.233779782932728 ], [ 110.386545605781151, -7.233844376759904 ], [ 110.386565077625434, -7.233952807434881 ], [ 110.386567076055826, -7.233979512160772 ], [ 110.386558920500789, -7.23399256195847 ], [ 110.386507431358424, -7.234026450654194 ], [ 110.386480938564048, -7.234059405538311 ], [ 110.386469649269756, -7.234097314965375 ], [ 110.386464519536659, -7.234165417595141 ], [ 110.386440700067496, -7.234203568137999 ], [ 110.386108307087611, -7.234320764128013 ], [ 110.386089722844133, -7.2343083555353 ], [ 110.386048395709921, -7.234302108070747 ], [ 110.386000929613687, -7.234250445975094 ], [ 110.385941079617496, -7.23418638363366 ], [ 110.385831596370508, -7.234144957559096 ], [ 110.385738700352533, -7.234064339245991 ], [ 110.385197339690819, -7.233964540668438 ], [ 110.385030023251588, -7.233896205346335 ], [ 110.384642570174378, -7.234100698748916 ], [ 110.384027144653999, -7.234089776837087 ], [ 110.383806549512215, -7.234192216117466 ], [ 110.38346218353405, -7.234302141988826 ], [ 110.383196957215773, -7.234314480968496 ], [ 110.382580286128231, -7.234290970743992 ], [ 110.382476732671435, -7.234300353876471 ], [ 110.382253347540413, -7.234267399126618 ], [ 110.382193222667141, -7.234399966019993 ], [ 110.382174672418998, -7.234516263324048 ], [ 110.382205653708496, -7.234776160186764 ], [ 110.382236753816841, -7.235011313176893 ], [ 110.382281523576594, -7.235150144537204 ], [ 110.382287529407066, -7.235241986200442 ], [ 110.382264858694654, -7.235382766853921 ], [ 110.381745853660888, -7.235337166372466 ], [ 110.381049510978343, -7.235334180024047 ], [ 110.380870746408817, -7.235309090195621 ], [ 110.380537755114844, -7.235184748371838 ], [ 110.379717181214133, -7.234828088859358 ], [ 110.379801029183014, -7.234616570305462 ], [ 110.379883741993453, -7.234349421011481 ], [ 110.379935966819374, -7.234238233748046 ], [ 110.379983901550432, -7.234164832195329 ], [ 110.380213499300353, -7.23397104713636 ], [ 110.380440205071139, -7.233788746645953 ], [ 110.380571307772669, -7.233557942867995 ], [ 110.380666147173443, -7.233278111885006 ], [ 110.380717295814932, -7.233067757973084 ], [ 110.380544190704583, -7.233018091319706 ], [ 110.380646396491912, -7.232664501205863 ], [ 110.380753417969132, -7.232275998187186 ], [ 110.380764416091935, -7.23220322657516 ], [ 110.38075770898422, -7.232126349416149 ], [ 110.380741700722297, -7.231876676577335 ], [ 110.380736275350472, -7.231858982752407 ], [ 110.3806906573612, -7.231843275057321 ], [ 110.380425735337042, -7.231800059352293 ], [ 110.380283411563937, -7.231767894186581 ], [ 110.380193557493087, -7.231722195374011 ], [ 110.380155468738081, -7.231679968190142 ], [ 110.380124928670227, -7.231596936382798 ], [ 110.380109551603738, -7.231550658596122 ], [ 110.380079076405366, -7.231511078123349 ], [ 110.380012945121905, -7.231412597082396 ], [ 110.380002560539452, -7.23135511559529 ], [ 110.380018411761853, -7.23124020243431 ], [ 110.380058752557645, -7.231069596653831 ], [ 110.380107824324057, -7.230890295563678 ], [ 110.380141044888234, -7.230825907636524 ], [ 110.380382016910929, -7.230588529341301 ], [ 110.380518978392971, -7.23053647243206 ], [ 110.380576074429484, -7.230546998634805 ], [ 110.380657572160032, -7.230566265163258 ], [ 110.380679334388617, -7.230592416263125 ], [ 110.380686258681408, -7.230629866533289 ], [ 110.380701071708884, -7.230636852400681 ], [ 110.380713219177593, -7.230680404791031 ], [ 110.380745462162068, -7.230693509361423 ], [ 110.380792495644812, -7.230730143400927 ], [ 110.380804669217355, -7.23075454003469 ], [ 110.380924508050057, -7.230790837597276 ], [ 110.38096105014138, -7.230848354598474 ], [ 110.381018590487642, -7.230852786328787 ], [ 110.381133777874169, -7.230783285311231 ], [ 110.381251559632744, -7.230729460703807 ], [ 110.381384944164523, -7.230742992751612 ], [ 110.38150462766464, -7.230786691056234 ], [ 110.381721883370744, -7.230890891464044 ], [ 110.381727596644993, -7.230964039516048 ], [ 110.381736775467871, -7.231053445669141 ], [ 110.381783204902916, -7.231106912675445 ], [ 110.381929658021505, -7.231128008521305 ], [ 110.381970314190298, -7.231152443751623 ], [ 110.382084127498018, -7.231238508896647 ], [ 110.382180644582675, -7.231220064418363 ], [ 110.38229918862298, -7.231246927105109 ], [ 110.382340978980267, -7.23129226107315 ], [ 110.38242538786038, -7.231343844559096 ], [ 110.382489657938621, -7.231386500073685 ], [ 110.382526746070567, -7.231470139247971 ], [ 110.382554594771179, -7.231508875553352 ], [ 110.382556048113017, -7.231580082904879 ], [ 110.382573074711871, -7.231597907316639 ], [ 110.382586204581401, -7.231631592865902 ], [ 110.382592308141113, -7.231702806516942 ], [ 110.382603126574779, -7.231726427304539 ], [ 110.382611201895457, -7.231772489551042 ], [ 110.382651416501986, -7.231836783664719 ], [ 110.382659098528606, -7.231887102221518 ], [ 110.382655969999917, -7.231907995215673 ], [ 110.382669108818575, -7.231935102017294 ], [ 110.382660898400957, -7.231988494932917 ], [ 110.382665528118125, -7.232003593649436 ], [ 110.382678298869905, -7.232016381478665 ], [ 110.382699125507003, -7.232089550000513 ], [ 110.382724682785707, -7.2321035161053 ], [ 110.382778172910506, -7.232094300893207 ], [ 110.382833931388262, -7.232126883211334 ], [ 110.382877493295979, -7.23215190278487 ], [ 110.383221495371373, -7.231808144594405 ], [ 110.38326105686356, -7.231782657067363 ], [ 110.383345943774998, -7.231767679482545 ], [ 110.383444711246085, -7.231804383268274 ], [ 110.383563546833571, -7.231616468895427 ], [ 110.383675553401417, -7.231320576193188 ], [ 110.383633751091111, -7.231283949501869 ], [ 110.383711342884013, -7.230968854436717 ], [ 110.383735080516701, -7.230824347308866 ], [ 110.383715977508459, -7.23076598336126 ], [ 110.383715181145163, -7.230710256319118 ], [ 110.383705639677672, -7.230673673253897 ], [ 110.383671743666156, -7.230593521348905 ], [ 110.383681445679031, -7.230511686954989 ], [ 110.383673497805475, -7.230478734036552 ], [ 110.383678205458921, -7.230436365448513 ], [ 110.383671488972936, -7.230388370119133 ], [ 110.383661653727998, -7.230354108571375 ], [ 110.383659961058015, -7.230316375160058 ], [ 110.38369898794042, -7.23025634836807 ], [ 110.383672015313735, -7.230214517426269 ], [ 110.383656366928506, -7.230180538258342 ], [ 110.383638991248034, -7.23013436669947 ], [ 110.383628567257915, -7.230105618903991 ], [ 110.383615513365726, -7.230087316171011 ], [ 110.383590292844303, -7.230039392567078 ], [ 110.383573766655161, -7.230009765801197 ], [ 110.383548523709308, -7.229978385811235 ], [ 110.383514582900531, -7.229931321130113 ], [ 110.383502406833188, -7.229908665990624 ], [ 110.383499808415237, -7.229895891942947 ], [ 110.383492888222477, -7.229855249068066 ], [ 110.383485948351321, -7.229829118136633 ], [ 110.383467982372011, -7.229789621281063 ], [ 110.383447115534238, -7.229746057150141 ], [ 110.38343843814171, -7.229715280037914 ], [ 110.383416393016248, -7.229683323888422 ], [ 110.383374011955866, -7.229644954965816 ], [ 110.383344413423174, -7.229610666681674 ], [ 110.383273515297304, -7.229597800243465 ], [ 110.383250291104503, -7.229578032546711 ], [ 110.383466111847738, -7.228993883288059 ], [ 110.383578576, -7.22903818700002 ] ] ] ] } },
{ "type": "Feature", "properties": { "fid": 7, "id": null, "Dusun": "Ngawinan" }, "geometry": { "type": "MultiPolygon", "coordinates": [ [ [ [ 110.376785352000013, -7.238936281000012 ], [ 110.376630686999988, -7.238886311999977 ], [ 110.37662235, -7.238884927 ], [ 110.376409105, -7.238849497999974 ], [ 110.376247647000014, -7.238730915000025 ], [ 110.376111964000017, -7.238588879000028 ], [ 110.376023923999981, -7.238560327000021 ], [ 110.375774, -7.238589000999974 ], [ 110.375292, -7.2387 ], [ 110.375, -7.238737 ], [ 110.374378408999974, -7.23881695400002 ], [ 110.373966, -7.23887 ], [ 110.373964457, -7.238869978000031 ], [ 110.373872802999983, -7.238868664 ], [ 110.373775334000015, -7.238833963999985 ], [ 110.373632566000026, -7.23880779 ], [ 110.373576593999985, -7.238800425000026 ], [ 110.373542145999977, -7.238795891999986 ], [ 110.373446968, -7.238783995 ], [ 110.373401103999981, -7.238797954 ], [ 110.37339224, -7.238800652000013 ], [ 110.373373981999976, -7.238815056000016 ], [ 110.373316158000023, -7.238860679000029 ], [ 110.373295494, -7.238883595 ], [ 110.37327802599998, -7.238902968 ], [ 110.373272787000019, -7.238903424 ], [ 110.373223299000017, -7.238907728 ], [ 110.373182848, -7.238891071000013 ], [ 110.373109154000019, -7.238857709 ], [ 110.373013905999983, -7.238826825 ], [ 110.372894, -7.238822001000012 ], [ 110.372859241000015, -7.238803030999968 ], [ 110.372793097999988, -7.238749747999965 ], [ 110.372773581, -7.238734025999979 ], [ 110.372745027000022, -7.238650744999973 ], [ 110.372730750000017, -7.238593638 ], [ 110.372721232, -7.238529394 ], [ 110.372726414999988, -7.23851039099997 ], [ 110.372749785, -7.238424697000036 ], [ 110.372783098000014, -7.238343794999985 ], [ 110.372787856, -7.238279549000028 ], [ 110.372778338999979, -7.238203407 ], [ 110.372773715, -7.238152528 ], [ 110.372773581, -7.238151060000011 ], [ 110.372773683, -7.238150927999987 ], [ 110.372806892000028, -7.238108227999981 ], [ 110.37289017400002, -7.23805112100001 ], [ 110.373018665000018, -7.237963080999974 ], [ 110.373037700999987, -7.237841730000013 ], [ 110.373061011, -7.237717411 ], [ 110.373073393000027, -7.237651372000022 ], [ 110.373081320999972, -7.237560181999977 ], [ 110.37308291, -7.237541917 ], [ 110.373104437, -7.237417725 ], [ 110.373113843, -7.237363458 ], [ 110.373114472, -7.237359243000013 ], [ 110.373137638, -7.237204033000012 ], [ 110.373120981999989, -7.237070782999975 ], [ 110.373075772, -7.236949431000032 ], [ 110.373051977, -7.236899461999989 ], [ 110.372978214000014, -7.236839976999984 ], [ 110.372951746000012, -7.236831785 ], [ 110.372912800999984, -7.236819729 ], [ 110.372878276999984, -7.236809043999982 ], [ 110.372806892000028, -7.236794766 ], [ 110.372769130999984, -7.236799975999988 ], [ 110.372752676, -7.236802246000023 ], [ 110.372737889, -7.236804284000012 ], [ 110.372668884, -7.23687091 ], [ 110.372664814000032, -7.236900384000025 ], [ 110.372661681000011, -7.236923079000012 ], [ 110.372680781999975, -7.23698036399998 ], [ 110.372673642999985, -7.237039849999976 ], [ 110.372609398, -7.237106475000027 ], [ 110.372511840000016, -7.237156444 ], [ 110.372393, -7.237191 ], [ 110.372156038000014, -7.237295382 ], [ 110.37215441799998, -7.237295465999972 ], [ 110.37201453199998, -7.237302781 ], [ 110.371964564, -7.237324195999978 ], [ 110.371893178999983, -7.237349180000029 ], [ 110.371796812000014, -7.237381304 ], [ 110.371554, -7.237471 ], [ 110.371538, -7.237503 ], [ 110.371404542, -7.237606922 ], [ 110.371371219028745, -7.237230925521723 ], [ 110.371630538394513, -7.23715164582505 ], [ 110.371807040704439, -7.237052926014292 ], [ 110.371963428650432, -7.236923986196042 ], [ 110.372092925564218, -7.236806750652831 ], [ 110.372145149514552, -7.236695279255472 ], [ 110.372209121845287, -7.236590533420282 ], [ 110.37225709498783, -7.236516377056442 ], [ 110.372293709490663, -7.236457301131178 ], [ 110.372399638106458, -7.236378192583474 ], [ 110.372523138897279, -7.23634565452326 ], [ 110.372674350719095, -7.236315670611686 ], [ 110.37277260782048, -7.236318321946476 ], [ 110.373548503446642, -7.236399902299849 ], [ 110.373679649429704, -7.236304474005633 ], [ 110.373834564141376, -7.236329847171999 ], [ 110.373895018330529, -7.236339994346199 ], [ 110.373987979853055, -7.236528823419815 ], [ 110.374545407092583, -7.236539024298464 ], [ 110.375036694829561, -7.236551020761863 ], [ 110.375022771878946, -7.236369848377738 ], [ 110.374954924461008, -7.236239551357297 ], [ 110.375006174173095, -7.236072621001604 ], [ 110.375446032823291, -7.235694642242641 ], [ 110.375483831355467, -7.235518494175142 ], [ 110.375547592552365, -7.23552848840701 ], [ 110.375618474858257, -7.235513017707247 ], [ 110.375651068930111, -7.23551447764228 ], [ 110.375797157136219, -7.235431177493013 ], [ 110.375881501047047, -7.235417140456364 ], [ 110.376016416696245, -7.235471458989222 ], [ 110.376053630334823, -7.235463018400861 ], [ 110.376094216394975, -7.235320840325859 ], [ 110.376173939261463, -7.235317765171312 ], [ 110.376412233240785, -7.234784184430473 ], [ 110.376517500865191, -7.234755669483727 ], [ 110.376476160924767, -7.234672820167139 ], [ 110.376489090671953, -7.234545464418626 ], [ 110.376411060645182, -7.234476894395295 ], [ 110.376564382047476, -7.234286044056323 ], [ 110.376560752888821, -7.234219698752656 ], [ 110.37655126643439, -7.234161571635802 ], [ 110.376535370839918, -7.234126522186071 ], [ 110.376521864611419, -7.234093068173737 ], [ 110.37658535588335, -7.234009168184312 ], [ 110.376549535093829, -7.233970907135331 ], [ 110.376493450061645, -7.233886047436447 ], [ 110.376501920431878, -7.233813217336563 ], [ 110.376559414774562, -7.233742444527586 ], [ 110.376911596849268, -7.233868707567455 ], [ 110.377009097611449, -7.233690518046906 ], [ 110.377097121596378, -7.233447036641565 ], [ 110.377114942228431, -7.233240875204486 ], [ 110.377189472890393, -7.232954386773766 ], [ 110.377179614874422, -7.232731071684666 ], [ 110.377453060338013, -7.232140352778635 ], [ 110.377385377516404, -7.231792769541459 ], [ 110.377611490579085, -7.231710683656805 ], [ 110.377522229892051, -7.231402477135232 ], [ 110.377673235018449, -7.23115549916333 ], [ 110.377429573364694, -7.230954553171 ], [ 110.377415449870966, -7.230789744431361 ], [ 110.377738448853634, -7.230686296481247 ], [ 110.377976400357937, -7.230718504999571 ], [ 110.378047755843369, -7.230680290805468 ], [ 110.37805709754106, -7.230650118685046 ], [ 110.378168748911818, -7.230616216289364 ], [ 110.378531125613534, -7.230581107824213 ], [ 110.37852881956006, -7.23056717320202 ], [ 110.378715486957432, -7.230557495033391 ], [ 110.378879395716822, -7.230597104933088 ], [ 110.378875915403569, -7.230623243213162 ], [ 110.378945455755115, -7.23065292085941 ], [ 110.378986045557525, -7.230694254617477 ], [ 110.37900322529002, -7.230725924839978 ], [ 110.379023255889621, -7.230750955694083 ], [ 110.379013146355035, -7.230775902488586 ], [ 110.379003643999255, -7.23078188781872 ], [ 110.378991225486658, -7.230795028408067 ], [ 110.378988101032746, -7.230812825485857 ], [ 110.378986518186906, -7.230836816432428 ], [ 110.378991919103285, -7.23085462512527 ], [ 110.378995001262979, -7.230867786832561 ], [ 110.379002731510681, -7.230882502814535 ], [ 110.379018218440748, -7.230892585537497 ], [ 110.379027500871857, -7.230905755691622 ], [ 110.379030570345066, -7.230928205034338 ], [ 110.379039854891786, -7.230939827249027 ], [ 110.37904524523826, -7.230965375637738 ], [ 110.37904522303505, -7.230981628999962 ], [ 110.379048297795819, -7.231000208494441 ], [ 110.37907231010476, -7.231010302830133 ], [ 110.379094768117952, -7.231023490931636 ], [ 110.379106359797873, -7.231048273796348 ], [ 110.379103232174202, -7.231068392783875 ], [ 110.379103978663622, -7.23108929101978 ], [ 110.379128766012727, -7.23109938640871 ], [ 110.379209909294076, -7.2309880450943 ], [ 110.379370870296299, -7.231026575858461 ], [ 110.379646788434414, -7.23116452484105 ], [ 110.379665898443974, -7.231217374381104 ], [ 110.379686763375815, -7.23126209961195 ], [ 110.379741851509294, -7.231359694947537 ], [ 110.379793498740284, -7.231423037371872 ], [ 110.379881187485211, -7.231484687394968 ], [ 110.380012804975138, -7.231515341567468 ], [ 110.380079076405366, -7.231511078123349 ], [ 110.380109551603738, -7.231550658596122 ], [ 110.380124928670227, -7.231596936382798 ], [ 110.380155468738081, -7.231679968190142 ], [ 110.380193557493087, -7.231722195374011 ], [ 110.380283411563937, -7.231767894186581 ], [ 110.380425735337042, -7.231800059352293 ], [ 110.3806906573612, -7.231843275057321 ], [ 110.380736275350472, -7.231858982752407 ], [ 110.380741700722297, -7.231876676577335 ], [ 110.38075770898422, -7.232126349416149 ], [ 110.380764416091935, -7.23220322657516 ], [ 110.380753417969132, -7.232275998187186 ], [ 110.380646396491912, -7.232664501205863 ], [ 110.380544190704583, -7.233018091319706 ], [ 110.380717295814932, -7.233067757973084 ], [ 110.380666147173443, -7.233278111885006 ], [ 110.380571307772669, -7.233557942867995 ], [ 110.380440205071139, -7.233788746645953 ], [ 110.380213499300353, -7.23397104713636 ], [ 110.379983901550432, -7.234164832195329 ], [ 110.379935966819374, -7.234238233748046 ], [ 110.379883741993453, -7.234349421011481 ], [ 110.379801029183014, -7.234616570305462 ], [ 110.379717181214133, -7.234828088859358 ], [ 110.380537755114844, -7.235184748371838 ], [ 110.380870746408817, -7.235309090195621 ], [ 110.381049510978343, -7.235334180024047 ], [ 110.380973347790686, -7.235363667326477 ], [ 110.380649203154377, -7.235538730737499 ], [ 110.380336289556283, -7.235719931406301 ], [ 110.379859778758373, -7.235982538895778 ], [ 110.379450694108172, -7.236253400678813 ], [ 110.379209287838805, -7.236446942366582 ], [ 110.37904370835804, -7.236483450040966 ], [ 110.378857594068279, -7.236592376042138 ], [ 110.378755257776419, -7.23670753847126 ], [ 110.378728602011719, -7.236772805900666 ], [ 110.378712085938048, -7.23689522797449 ], [ 110.378738565850952, -7.236958527141218 ], [ 110.378828346311721, -7.237058646028941 ], [ 110.378809828542231, -7.237150454225021 ], [ 110.378754481756673, -7.237274864075838 ], [ 110.378767519338041, -7.237454467276491 ], [ 110.378808252674588, -7.237555539636616 ], [ 110.37888055260828, -7.237736244041039 ], [ 110.378869124526872, -7.237873978630861 ], [ 110.378805547507639, -7.238039192118263 ], [ 110.378632735686821, -7.238382481456637 ], [ 110.378627822120563, -7.238488593398879 ], [ 110.378667889663006, -7.238578440775935 ], [ 110.378730688805106, -7.238649952477501 ], [ 110.378770995233396, -7.238731183702238 ], [ 110.378790813121, -7.238850934344176 ], [ 110.378774273362552, -7.238990589314794 ], [ 110.378739682582548, -7.23904677593096 ], [ 110.3784268863878, -7.239305750140052 ], [ 110.377960413840668, -7.239033014013595 ], [ 110.377795336947187, -7.238867715035564 ], [ 110.377697354425763, -7.23878776541043 ], [ 110.37752129904581, -7.23868049913713 ], [ 110.377319157278322, -7.238609477 ], [ 110.377178096124737, -7.238593562797901 ], [ 110.37696591045335, -7.238781927828842 ], [ 110.376873392, -7.238964834 ], [ 110.376785352000013, -7.238936281000012 ] ] ] ] } }
]
}
