{
"type": "FeatureCollection",
"name": "GeoJson Peta Irigasi Desa Jetis",
"crs": { "type": "name", "properties": { "name": "urn:ogc:def:crs:OGC:1.3:CRS84" } },
"features": [
{ "type": "Feature", "properties": { "OBJECTID": 454, "NAMA_DI": "DI Siblender", "Kecamatan": "Bandungan", "X": 110.377135165, "Y": -7.2215311042800003, "Panjang_Sa": 0.96377325882999998, "NO_DI": 386, "NAMA_DESA": "Duren", "Panjang": 0.0, "Desa": null, "NO": 316, "panjang_M": 963.77325882800005, "Shape_Leng": 0.0087239006 }, "geometry": { "type": "MultiLineString", "coordinates": [ [ [ 110.377984545229154, -7.223879908111758, 0.0 ], [ 110.377989951575046, -7.223897147735158, 0.0 ], [ 110.378016019323866, -7.223937213431611, 0.0 ], [ 110.378046948807707, -7.22393779978961, 0.0 ], [ 110.378088574647222, -7.223887273067422, 0.0 ] ] ] } },
{ "type": "Feature", "properties": { "OBJECTID": 317, "NAMA_DI": "DI Keji Panjang", "Kecamatan": "Bandungan", "X": 110.36927473, "Y": -7.2384634075600003, "Panjang_Sa": 2.2772137542199999, "NO_DI": 102, "NAMA_DESA": "Pesekan", "Panjang": 0.0, "Desa": null, "NO": 177, "panjang_M": 2277.2137542199998, "Shape_Leng": 0.02061514055 }, "geometry": { "type": "MultiLineString", "coordinates": [ [ [ 110.371336557804042, -7.236839828562776, 0.0 ], [ 110.3713712650719, -7.236871496022673, 0.0 ], [ 110.371476290598366, -7.237078528950917, 0.0 ], [ 110.371521888024802, -7.237161677569304, 0.0 ], [ 110.371578885257406, -7.237169807440637, 0.0 ], [ 110.371683072615781, -7.237104009442419, 0.0 ], [ 110.371777117420095, -7.237085988827289, 0.0 ], [ 110.371823385740697, -7.237066794596842, 0.0 ], [ 110.371837299152105, -7.237049527613578, 0.0 ], [ 110.371926147673662, -7.236981046937728, 0.0 ], [ 110.37203100502694, -7.236894126562618, 0.0 ], [ 110.372099066618716, -7.236827323122441, 0.0 ], [ 110.372117422680958, -7.236792454608064, 0.0 ], [ 110.372154972973703, -7.236720621259622, 0.0 ], [ 110.37215924835067, -7.236698409803751, 0.0 ], [ 110.37217584443971, -7.236657086855018, 0.0 ], [ 110.372245833278669, -7.236558263952645, 0.0 ], [ 110.372293358851493, -7.236462207364923, 0.0 ], [ 110.372410035095129, -7.236411078208619, 0.0 ], [ 110.372572392402049, -7.236361624489348, 0.0 ], [ 110.372693594933537, -7.236349302877954, 0.0 ], [ 110.372863998474827, -7.236390625826687, 0.0 ], [ 110.373035827441527, -7.236434212368977, 0.0 ], [ 110.373212182696136, -7.236502189424471, 0.0 ], [ 110.373353836710237, -7.236640407129016, 0.0 ], [ 110.373491718967728, -7.236803938051253, 0.0 ], [ 110.373578304794989, -7.237010216448311, 0.0 ], [ 110.373615771450773, -7.237187912592049, 0.0 ], [ 110.373612921499216, -7.237262175908654, 0.0 ], [ 110.373622728606108, -7.237385139312664, 0.0 ], [ 110.373646449124408, -7.237483625868606, 0.0 ], [ 110.373736805809017, -7.237583538749277, 0.0 ], [ 110.373754324602487, -7.237616143670039, 0.0 ], [ 110.373822385294886, -7.237710105736767, 0.0 ], [ 110.37383085151265, -7.237753858653605, 0.0 ], [ 110.373776368784434, -7.237858213285847, 0.0 ], [ 110.373782404134715, -7.237918563191101, 0.0 ], [ 110.373792126705325, -7.237951000837995, 0.0 ], [ 110.373818194454145, -7.23798905475104, 0.0 ], [ 110.373842753140593, -7.238098354755209, 0.0 ], [ 110.373950880428822, -7.238150239342019, 0.0 ], [ 110.374077698327199, -7.238166750894777, 0.0 ], [ 110.374160595135436, -7.238177898890854, 0.0 ], [ 110.374302332786499, -7.238206816591287, 0.0 ], [ 110.374402748388206, -7.238195249511136, 0.0 ], [ 110.374534092574379, -7.238142444018536, 0.0 ], [ 110.374708185134693, -7.238145880328091, 0.0 ], [ 110.37492594697494, -7.238217378229365, 0.0 ], [ 110.375071037298596, -7.238175133475579, 0.0 ], [ 110.375193077998233, -7.23816180642217, 0.0 ], [ 110.37534588000841, -7.238089051268673, 0.0 ], [ 110.375461550809973, -7.238021408760972, 0.0 ], [ 110.375612760120816, -7.237929292103104, 0.0 ], [ 110.375769920245659, -7.237844131701252, 0.0 ], [ 110.37593504386723, -7.237797863380649, 0.0 ], [ 110.376140149548348, -7.237879168388872, 0.0 ], [ 110.376268308335796, -7.238033898545552, 0.0 ], [ 110.376331340918682, -7.23803976572259, 0.0 ], [ 110.376454806144466, -7.237987294777781, 0.0 ], [ 110.376562932533375, -7.237920994058584, 0.0 ], [ 110.37659595743753, -7.237905319774654, 0.0 ], [ 110.376715650906647, -7.2378361691039, 0.0 ], [ 110.376844816035486, -7.237763163039517, 0.0 ], [ 110.377025194856913, -7.237705746722781, 0.0 ], [ 110.377198196539609, -7.237755451352939, 0.0 ], [ 110.377262150927606, -7.237772718336259, 0.0 ], [ 110.377330547067174, -7.237817142147321, 0.0 ], [ 110.377432387194972, -7.237926777598659, 0.0 ], [ 110.377517883043936, -7.237981343963781, 0.0 ], [ 110.377678564014559, -7.238055859090593, 0.0 ], [ 110.377781577757673, -7.238120399836532, 0.0 ], [ 110.377885764216728, -7.238218635481587, 0.0 ], [ 110.377936894272295, -7.238363558531375, 0.0 ], [ 110.37802473645246, -7.238499345368439, 0.0 ], [ 110.378093887123271, -7.238581571282452, 0.0 ], [ 110.378141077248983, -7.238612752576444, 0.0 ], [ 110.378236966562838, -7.238703444708165, 0.0 ], [ 110.378278037701364, -7.238760021957376, 0.0 ], [ 110.378351546486726, -7.238840069713376, 0.0 ], [ 110.378432767857987, -7.238920032933152, 0.0 ], [ 110.378572326451774, -7.238972420240941, 0.0 ], [ 110.378678189247069, -7.238999577068796, 0.0 ], [ 110.378775587623352, -7.239036876450655, 0.0 ], [ 110.378782124795293, -7.23902489028643, 0.0 ], [ 110.378782962963442, -7.238909723105166, 0.0 ], [ 110.37879536821174, -7.238853480403748, 0.0 ], [ 110.3787437363344, -7.238744851293802, 0.0 ], [ 110.378648098830752, -7.238586601190661, 0.0 ], [ 110.37864273437475, -7.238431702860737, 0.0 ], [ 110.378708448736006, -7.238279488107821, 0.0 ], [ 110.378717500412392, -7.238255683053296, 0.0 ], [ 110.378803750792542, -7.238116124459509, 0.0 ], [ 110.378868458812406, -7.237958460714367, 0.0 ], [ 110.378882875844113, -7.23793214205466, 0.0 ], [ 110.378898046507686, -7.237769616574496, 0.0 ], [ 110.37888924574213, -7.237745812419234, 0.0 ], [ 110.378818502372042, -7.237634416994695, 0.0 ], [ 110.378781873884407, -7.237517321667042, 0.0 ], [ 110.378755973409511, -7.237367872329401, 0.0 ], [ 110.378756141582755, -7.237331745663482, 0.0 ], [ 110.37881079158484, -7.237209537689978, 0.0 ], [ 110.378808025270189, -7.237086324274401, 0.0 ], [ 110.378791931902185, -7.237075511725436, 0.0 ], [ 110.37870584969528, -7.236960092734023, 0.0 ], [ 110.378749100790458, -7.236806200745548, 0.0 ], [ 110.378880947697667, -7.23666337311613, 0.0 ], [ 110.378943895744271, -7.236601430511541, 0.0 ], [ 110.379108433007843, -7.23647402625528, 0.0 ], [ 110.379285710067506, -7.236436055979141, 0.0 ], [ 110.379363745140779, -7.236440414993126, 0.0 ], [ 110.379567760843543, -7.236526664473956, 0.0 ], [ 110.379722993721259, -7.236632359995383, 0.0 ], [ 110.379731879023041, -7.236666055793819, 0.0 ], [ 110.379741434319783, -7.236690530843305, 0.0 ], [ 110.379813350405868, -7.236800165395266, 0.0 ], [ 110.37991418509165, -7.236839309286665, 0.0 ], [ 110.380053324601306, -7.236891947505342, 0.0 ], [ 110.380239486962807, -7.236959086392687, 0.0 ], [ 110.380348786967033, -7.236942323029723, 0.0 ], [ 110.380558250762704, -7.236915584386679, 0.0 ], [ 110.380627568707382, -7.236893540204676, 0.0 ], [ 110.380695630299158, -7.236848864583408, 0.0 ], [ 110.380746759455462, -7.236828496737701, 0.0 ], [ 110.380813479258734, -7.23680888342318, 0.0 ], [ 110.380932753643719, -7.236726321162735, 0.0 ], [ 110.381033755603426, -7.236714670445622, 0.0 ], [ 110.381188653033973, -7.236685836382208, 0.0 ], [ 110.38127632794027, -7.23665482326146, 0.0 ], [ 110.381408594830873, -7.236589360710354, 0.0 ], [ 110.381493335249274, -7.236597324207082, 0.0 ], [ 110.381585200996312, -7.236573519152557, 0.0 ], [ 110.381687628381428, -7.236496322247433, 0.0 ], [ 110.381739344794994, -7.236415771770396, 0.0 ], [ 110.381779996849446, -7.236359445432015, 0.0 ], [ 110.381800364695152, -7.236311752585266, 0.0 ], [ 110.381882256061317, -7.236177977531611, 0.0 ], [ 110.382036818044753, -7.236081166412646, 0.0 ], [ 110.382046456978458, -7.236079154629238, 0.0 ], [ 110.382284671200694, -7.236058870420493, 0.0 ], [ 110.382446357613389, -7.236087955394794, 0.0 ], [ 110.382476029844952, -7.236113436785615, 0.0 ], [ 110.382588766158676, -7.236123159356282, 0.0 ], [ 110.382685829087791, -7.236089967178202, 0.0 ], [ 110.382760427851508, -7.236015116604278, 0.0 ], [ 110.382846845505583, -7.235910510161887, 0.0 ], [ 110.382909458105075, -7.235841946748394, 0.0 ], [ 110.383026972516802, -7.235732814018093, 0.0 ], [ 110.3830667027662, -7.23570431540179, 0.0 ], [ 110.38306100286303, -7.235704986296014, 0.0 ] ] ] } },
{ "type": "Feature", "properties": { "OBJECTID": 462, "NAMA_DI": "DI Gintungan Bd", "Kecamatan": "Bandungan", "X": 110.36847948899999, "Y": -7.2321368550300003, "Panjang_Sa": 2.34155963692, "NO_DI": 53, "NAMA_DESA": "Kenteng", "Panjang": 0.0, "Desa": null, "NO": 83, "panjang_M": 2341.5596369199998, "Shape_Leng": 0.02119515012 }, "geometry": { "type": "MultiLineString", "coordinates": [ [ [ 110.373197082812837, -7.234018943840531, 0.0 ], [ 110.373222995245101, -7.234022822395275, 0.0 ], [ 110.373308407457102, -7.233989630217195, 0.0 ], [ 110.37343723713883, -7.233995748305119, 0.0 ], [ 110.373461293104242, -7.234000023682086, 0.0 ] ] ] } },
{ "type": "Feature", "properties": { "OBJECTID": 465, "NAMA_DI": "DI Sibening Bd", "Kecamatan": "Bandungan", "X": 110.390703622, "Y": -7.2352461611800001, "Panjang_Sa": 2.2893252507800002, "NO_DI": 195, "NAMA_DESA": "Jetis", "Panjang": 0.0, "Desa": null, "NO": 314, "panjang_M": 2289.3252507799998, "Shape_Leng": 0.02072114013 }, "geometry": { "type": "MultiLineString", "coordinates": [ [ [ 110.389595000209169, -7.235103999949615, 0.0 ], [ 110.389717999586082, -7.235127999257713, 0.0 ], [ 110.38972960450532, -7.235135936417761, 0.0 ] ], [ [ 110.386025179118803, -7.233439022992457, 0.0 ], [ 110.386154427884605, -7.23344447108542, 0.0 ], [ 110.386255010760181, -7.233447488310901, 0.0 ], [ 110.386349140100776, -7.233445309253568, 0.0 ], [ 110.386432036909014, -7.233475065122093, 0.0 ], [ 110.386459612820943, -7.233524937026175, 0.0 ], [ 110.386528679854734, -7.233606744755434, 0.0 ], [ 110.38658282713584, -7.233674135452929, 0.0 ], [ 110.386583665303988, -7.233744877923755, 0.0 ], [ 110.386588275228803, -7.233893992713547, 0.0 ], [ 110.386617528376291, -7.233990049301269, 0.0 ], [ 110.386606883101251, -7.234017877023348, 0.0 ], [ 110.386508563819234, -7.234123991628849, 0.0 ], [ 110.3865093174511, -7.234161878268026, 0.0 ], [ 110.386485177848726, -7.234214767397532, 0.0 ], [ 110.386285185712836, -7.234287522551085, 0.0 ], [ 110.386149315238754, -7.234362121314803, 0.0 ], [ 110.386119140286155, -7.234516432387409, 0.0 ], [ 110.386113524020004, -7.234536800233116, 0.0 ], [ 110.386136323632513, -7.23457485414616, 0.0 ], [ 110.386139591768824, -7.234581475854384, 0.0 ], [ 110.386151243385257, -7.2346068736083, 0.0 ], [ 110.386184100116168, -7.234631265020823, 0.0 ], [ 110.386305219010694, -7.234750203958697, 0.0 ], [ 110.386391468491524, -7.234793118707444, 0.0 ], [ 110.386494314061395, -7.234863023909384, 0.0 ], [ 110.386569835529542, -7.234904011410947, 0.0 ], [ 110.386599675035029, -7.234945669806791, 0.0 ], [ 110.386625826420811, -7.23498296918865, 0.0 ], [ 110.386683996369413, -7.23506921866948, 0.0 ], [ 110.386765133204392, -7.235166700682669, 0.0 ], [ 110.386790698232176, -7.235197042909135, 0.0 ], [ 110.386802936206607, -7.235275078881727, 0.0 ], [ 110.3867316055792, -7.235427377271606, 0.0 ], [ 110.38665482775815, -7.23555050794954, 0.0 ], [ 110.386617695650216, -7.23558370012762, 0.0 ], [ 110.386598668693694, -7.235603397978366, 0.0 ], [ 110.38655910661754, -7.235673386817325, 0.0 ], [ 110.38654460594887, -7.235686462060528, 0.0 ], [ 110.386483417875468, -7.235856280143139, 0.0 ], [ 110.386435305944701, -7.235980331726864, 0.0 ], [ 110.386413931757602, -7.236019726529094, 0.0 ] ], [ [ 110.382627999982276, -7.232463999613856, 0.0 ], [ 110.38263160086774, -7.232461563350398, 0.0 ] ], [ [ 110.38263160086774, -7.232461563350398, 0.0 ], [ 110.382733857381652, -7.232504775774714, 0.0 ], [ 110.382836200230543, -7.232535621621594, 0.0 ], [ 110.382908033578929, -7.232600496915381, 0.0 ], [ 110.382946757486934, -7.232717340432885, 0.0 ], [ 110.382979866028052, -7.232905681851662, 0.0 ], [ 110.382985733205089, -7.233054796641511, 0.0 ], [ 110.383026134348654, -7.233156384959159, 0.0 ], [ 110.383026134348654, -7.233165604808789, 0.0 ], [ 110.382995707585906, -7.233276832959405, 0.0 ], [ 110.383001072041907, -7.233303487066223, 0.0 ], [ 110.383029906105321, -7.233417062447415, 0.0 ], [ 110.383002748378203, -7.233526362451641, 0.0 ], [ 110.382990678577016, -7.233560057350701, 0.0 ], [ 110.382947679292045, -7.23361604824197, 0.0 ], [ 110.382902920033814, -7.233679415372649, 0.0 ], [ 110.382861429811214, -7.233750410552943, 0.0 ], [ 110.382888083917976, -7.233759965849686, 0.0 ], [ 110.382908871747077, -7.233788212655838, 0.0 ] ], [ [ 110.38263160086774, -7.232461563350398, 0.0 ], [ 110.382693175649592, -7.23241990855189, 0.0 ], [ 110.382743527791661, -7.232402027331659, 0.0 ], [ 110.382793879933672, -7.232384146111428, 0.0 ], [ 110.382912522994616, -7.232373536809234, 0.0 ], [ 110.383103073148391, -7.232355845345921, 0.0 ], [ 110.383200128882891, -7.23235956674057, 0.0 ], [ 110.383258176523668, -7.232392749026076, 0.0 ], [ 110.383270969379794, -7.232440821386774, 0.0 ], [ 110.383344143617421, -7.232517851917294, 0.0 ], [ 110.383455874489073, -7.232611813084645, 0.0 ], [ 110.38349015664545, -7.23270175068518, 0.0 ], [ 110.383497532884917, -7.23279990269333, 0.0 ], [ 110.383523516097455, -7.23291104630772, 0.0 ], [ 110.383558133700944, -7.23301623910811, 0.0 ], [ 110.383570622586205, -7.233187900800942, 0.0 ], [ 110.383664416479689, -7.233260404144289, 0.0 ], [ 110.383740188858667, -7.233357801621196, 0.0 ], [ 110.383787881705416, -7.233408093508672, 0.0 ], [ 110.383926433957811, -7.233482860445633, 0.0 ], [ 110.38400941530233, -7.233500797423801, 0.0 ], [ 110.384200857583551, -7.2335221716109, 0.0 ], [ 110.384369333877714, -7.23352954695099, 0.0 ], [ 110.384425073858154, -7.233518567128101, 0.0 ], [ 110.384526159454765, -7.233484704055797, 0.0 ], [ 110.384663538991219, -7.233505574622541, 0.0 ], [ 110.384792201399023, -7.233452433682828, 0.0 ], [ 110.384841989666143, -7.233446650142753, 0.0 ], [ 110.384957325020594, -7.233453188214014, 0.0 ], [ 110.384998563433044, -7.233407422614391, 0.0 ], [ 110.385072324028613, -7.233353862590661, 0.0 ], [ 110.385090345543063, -7.233420163309859, 0.0 ], [ 110.385160837103001, -7.233527786977731, 0.0 ], [ 110.385248679283166, -7.233528541508917, 0.0 ], [ 110.385291427657307, -7.233500713786839, 0.0 ], [ 110.385344375242767, -7.233446809322743, 0.0 ], [ 110.385416339892231, -7.233396647836969, 0.0 ], [ 110.385481017335167, -7.233418273834218, 0.0 ], [ 110.385581585821569, -7.233483027719501, 0.0 ], [ 110.385689372266768, -7.233526251835031, 0.0 ], [ 110.385825966695052, -7.233533615483907, 0.0 ], [ 110.38592665119404, -7.2335122116192, 0.0 ], [ 110.386025179118803, -7.233439022992457, 0.0 ] ], [ [ 110.385896418684808, -7.232424151553289, 0.0 ], [ 110.385896166874659, -7.232424236089571, 0.0 ], [ 110.385895999600734, -7.232424403363495, 0.0 ], [ 110.385894994158718, -7.232424570637363, 0.0 ], [ 110.385894071454288, -7.232425157894681, 0.0 ], [ 110.385934343994847, -7.232526718333361, 0.0 ], [ 110.385960646466742, -7.232593046931527, 0.0 ], [ 110.385982142062289, -7.232646924415974, 0.0 ], [ 110.385989200840982, -7.232743860540666, 0.0 ], [ 110.385960316415549, -7.232837158907728, 0.0 ], [ 110.385920710272615, -7.232883774366655, 0.0 ], [ 110.385891806062034, -7.232991432208792, 0.0 ], [ 110.385877315285938, -7.233073980080064, 0.0 ], [ 110.385905932612786, -7.233178125170298, 0.0 ], [ 110.385968852780366, -7.23334640271429, 0.0 ], [ 110.385988382457924, -7.233390323804372, 0.0 ], [ 110.386025179118803, -7.233439022992457, 0.0 ] ], [ [ 110.382034303540365, -7.231674883189271, 0.0 ], [ 110.382035058071551, -7.231674799552309, 0.0 ], [ 110.382035728066455, -7.231675051362458, 0.0 ], [ 110.382094737082525, -7.231679661287274, 0.0 ], [ 110.382100268812394, -7.231693491061719, 0.0 ], [ 110.382134802778978, -7.231816789013578, 0.0 ], [ 110.382200768051064, -7.231922569071287, 0.0 ], [ 110.382206887038251, -7.231964394740999, 0.0 ], [ 110.382236223822758, -7.232064139448426, 0.0 ], [ 110.382313420727826, -7.232154160685923, 0.0 ], [ 110.38243210875487, -7.232262706158906, 0.0 ], [ 110.382521879081537, -7.232340071237275, 0.0 ], [ 110.382627742776151, -7.232459932879578, 0.0 ], [ 110.38263160086774, -7.232461563350398, 0.0 ] ] ] } },
{ "type": "Feature", "properties": { "OBJECTID": 475, "NAMA_DI": "DI Dawuhan Bd", "Kecamatan": "Bandungan", "X": 110.378303097, "Y": -7.2257550762399996, "Panjang_Sa": 0.75177974008000004, "NO_DI": 33, "NAMA_DESA": "Jetis", "Panjang": 0.0, "Desa": null, "NO": 51, "panjang_M": 751.779740081, "Shape_Leng": 0.00680389557 }, "geometry": { "type": "MultiLineString", "coordinates": [ [ [ 110.378303097310152, -7.225755076035909, 0.0 ], [ 110.378307483303786, -7.225882223985423, 0.0 ], [ 110.37827148614025, -7.225918073660125, 0.0 ], [ 110.378242662868672, -7.225965899606535, 0.0 ], [ 110.378271319765645, -7.226040129648197, 0.0 ], [ 110.378237605081495, -7.226159746674909, 0.0 ], [ 110.378328535533569, -7.226260387107118, 0.0 ], [ 110.378429018584427, -7.226384973787447, 0.0 ], [ 110.378505537400713, -7.226509527192889, 0.0 ], [ 110.378625121152481, -7.226686790762756, 0.0 ], [ 110.378656065025439, -7.226848634556802, 0.0 ], [ 110.378684861317367, -7.226914943369877, 0.0 ], [ 110.378737702782814, -7.226994558552008, 0.0 ], [ 110.378765067354038, -7.226999317764239, 0.0 ], [ 110.378830205249812, -7.227099563394063, 0.0 ], [ 110.378900695910431, -7.227239642695281, 0.0 ], [ 110.37893995671368, -7.227264626761041, 0.0 ], [ 110.37903989477536, -7.227297939448306, 0.0 ], [ 110.379174551164681, -7.227281704886707, 0.0 ], [ 110.379227163303028, -7.22736314659187, 0.0 ], [ 110.379279788931171, -7.227435015913215, 0.0 ], [ 110.379337845565203, -7.227588538280372, 0.0 ], [ 110.379402972669141, -7.227600608081559, 0.0 ], [ 110.379631211611184, -7.22735526943012, 0.0 ], [ 110.379630122532205, -7.227357533023678, 0.0 ], [ 110.379629032553851, -7.227359712081011, 0.0 ], [ 110.379680917140661, -7.227395586936723, 0.0 ], [ 110.379710002114962, -7.227414194809171, 0.0 ], [ 110.379776386471121, -7.227490553546147, 0.0 ], [ 110.379813266768906, -7.227543108127918, 0.0 ], [ 110.379859954173583, -7.227582252019261, 0.0 ], [ 110.379920304078837, -7.227640505604825, 0.0 ], [ 110.379927595781965, -7.227645702786901, 0.0 ], [ 110.379955758951155, -7.227660454366401, 0.0 ], [ 110.38007771601383, -7.227644696445566, 0.0 ], [ 110.380170168118809, -7.227678056796833, 0.0 ], [ 110.380177460721313, -7.227686773925427, 0.0 ], [ 110.380202941212815, -7.227745950215365, 0.0 ], [ 110.380186680570887, -7.227847454896107, 0.0 ], [ 110.380213754661099, -7.227936470691532, 0.0 ], [ 110.3802191191171, -7.227930855324644, 0.0 ], [ 110.380232948891546, -7.227978883618562, 0.0 ], [ 110.380279384486073, -7.228084076418952, 0.0 ], [ 110.380293466070668, -7.228168649563486, 0.0 ], [ 110.380324898275489, -7.228237381150166, 0.0 ], [ 110.380351720555495, -7.22831692528581, 0.0 ], [ 110.380412908628898, -7.228388506824103, 0.0 ], [ 110.380503516224337, -7.228461597424712, 0.0 ], [ 110.380663275389907, -7.228472241800489, 0.0 ], [ 110.380761511934281, -7.228486072474197, 0.0 ], [ 110.380889251637711, -7.228482635265379, 0.0 ], [ 110.381028810231442, -7.228455142990413, 0.0 ], [ 110.381087400163437, -7.22845505935345, 0.0 ], [ 110.381147581895448, -7.228474002673011, 0.0 ], [ 110.38124221395708, -7.228494873239754, 0.0 ], [ 110.381338689628876, -7.228489927867827, 0.0 ], [ 110.381432818070152, -7.228499315890645, 0.0 ], [ 110.381523845649042, -7.228506273046037, 0.0 ], [ 110.381569862159495, -7.22858305086703, 0.0 ], [ 110.381573383005275, -7.22861506942985, 0.0 ], [ 110.381555613300975, -7.228731662036523, 0.0 ], [ 110.381538765401785, -7.228844147439418, 0.0 ], [ 110.381549997034824, -7.228929139668026, 0.0 ], [ 110.381535748176304, -7.229103651312414, 0.0 ], [ 110.381519654808301, -7.22916249215524, 0.0 ], [ 110.381502471461943, -7.229291657284136, 0.0 ], [ 110.381490150749926, -7.229428114116104, 0.0 ], [ 110.381477996412457, -7.22958125157345, 0.0 ], [ 110.381476907333479, -7.229654006727003, 0.0 ], [ 110.381530048273191, -7.229744196137688, 0.0 ], [ 110.381567012207881, -7.229815861312886, 0.0 ], [ 110.381625685776839, -7.229862715991487, 0.0 ] ] ] } },
{ "type": "Feature", "properties": { "OBJECTID": 468, "NAMA_DI": "DI Sipengkok A", "Kecamatan": "Ambarawa", "X": 110.401459, "Y": -7.2373829998300003, "Panjang_Sa": 3.58994431698, "NO_DI": 258, "NAMA_DESA": "Bandungan", "Panjang": 0.0, "Desa": null, "NO": 397, "panjang_M": 3589.9443169800002, "Shape_Leng": 0.03249722233 }, "geometry": { "type": "MultiLineString", "coordinates": [ [ [ 110.38998481439188, -7.234907365778605, 0.0 ], [ 110.38996705963217, -7.234888742721239, 0.0 ], [ 110.389927349167863, -7.234782535485579, 0.0 ], [ 110.389902731126199, -7.234637215834823, 0.0 ], [ 110.389896415187479, -7.234633923416766, 0.0 ] ], [ [ 110.389896415187479, -7.234633923416766, 0.0 ], [ 110.389891751303367, -7.234635120414453, 0.0 ], [ 110.389892337661308, -7.234635874945639, 0.0 ], [ 110.389891583130122, -7.234635539498527, 0.0 ] ], [ [ 110.389896415187479, -7.234633923416766, 0.0 ], [ 110.389894852165753, -7.234633108630987, 0.0 ], [ 110.389904491998777, -7.234631851378765, 0.0 ], [ 110.389896415187479, -7.234633923416766, 0.0 ] ] ] } }
]
}
