{
"type": "FeatureCollection",
"name": "Foto dan deskripsi Irigasi",
"crs": { "type": "name", "properties": { "name": "urn:ogc:def:crs:OGC:1.3:CRS84" } },
"features": [
{ "type": "Feature", "properties": { "fid": 1, "Name": "Bendung Pleret", "Deskripsi": "Bendung pleret adalah bendung paling hilir dari sistem jaringan irigasi kalikupang dan berfungsi sebagai suplesi air. Kondisi saluran cukup baik, akan tetapi terdapat sampah di sekitar bendung. Aliran air sungai juga terpantau sangat kecil.", "Path Foto": "https://lh3.googleusercontent.com/u/0/d/1FQwT2NY4e_J01LzaeSpvF8twuERBR5pk" }, "geometry": { "type": "Point", "coordinates": [ 110.386095965022378, -7.234520133237629, 0.0 ] } },
{ "type": "Feature", "properties": { "fid": 2, "Name": "Bendung Kemiri", "Deskripsi": "Bendung Kemiri merupakan bendung kedua dalam sistem jaringan sei bening. Bendung dalam kondisi baik. Bendung ini juga merupakan bangunan yang menghubungkan saluran yang dipisahkan oleh Kali Kemiri.", "Path Foto": "https://lh3.googleusercontent.com/u/0/d/1Qhs7nA85OdOKp7t_lsWJEA1KCb1FZDu2" }, "geometry": { "type": "Point", "coordinates": [ 110.385892, -7.232424, 0.0 ] } },
{ "type": "Feature", "properties": { "fid": 3, "Name": "Kerusakan Buis U pada Belokan", "Deskripsi": "Lokasi titik kerusakan pada komponen saluran drainase berupa beton pracetak tipe Buis U (penampang Tapak Kuda). Kerusakan terjadi secara spesifik di area belokan (tikungan saluran), kemungkinan akibat besarnya tekanan hidrolik atau hantaman arus air saat debit puncak.", "Path Foto": "https://lh3.googleusercontent.com/u/0/d/1k7Tcu72S2TlnzxVz8yxjz87ZK9mq0Lhj" }, "geometry": { "type": "Point", "coordinates": [ 110.386016, -7.232301, 0.0 ] } },
{ "type": "Feature", "properties": { "fid": 4, "Name": "Kebocoran Saluran Buis U dan Sedimentasi", "Deskripsi": "Selain kerusakan dinding saluran, pada saat pengukuran kedalaman saluran, dari dasar hingga tepi atas saluran hanya tersisa 0.15 m dari kedalaman total 0.2 m. Artinya lapisan sedimentasi telah mencapai 5 cm.", "Path Foto": "https://lh3.googleusercontent.com/u/0/d/1WGlHOZWvdl-EhG7Ab6PPtACk3stHSlTh" }, "geometry": { "type": "Point", "coordinates": [ 110.386038, -7.232278, 0.0 ] } },
{ "type": "Feature", "properties": { "fid": 5, "Name": "Kebocoran Saluran Buis U 1", "Deskripsi": "Kerusakan dinding saluran banyak terjadi pada saluran dengan belokan dan sambungan buis-u. Pada belokan, aliran air memiliki gaya sentrifugal yang menekan dinding luar saluran dengan lebih kuat, mempercepat erosi dan kelelahan material pada sambungan buis-U yang tidak terlindungi dengan baik. ", "Path Foto": "https://lh3.googleusercontent.com/u/0/d/1SfGT-KM8FM15QejSh6PiY3m8RlPSt26f" }, "geometry": { "type": "Point", "coordinates": [ 110.385956, -7.231547, 0.0 ] } },
{ "type": "Feature", "properties": { "fid": 6, "Name": "Kebocoran Saluran Buis U 2", "Deskripsi": "Terdapat banyak titik dengan dinding saluran yang ambrol yang berakibat pada banyaknya kehilangan air. Kebocoran dinding ini juga menciptakan turbulensi yang menghambat aliran air.", "Path Foto": "https://lh3.googleusercontent.com/u/0/d/1Upcq5wUNhxRmN5yHkzviyxgx_tDBj0sZ" }, "geometry": { "type": "Point", "coordinates": [ 110.385953, -7.231217, 0.0 ] } },
{ "type": "Feature", "properties": { "fid": 8, "Name": "Kebocoran Saluran Buis U 3", "Deskripsi": "Dinding saluran yang ambrol berakibat kepada bocornya air ke tanah di samping dan air mengalir kembali ke sungai.", "Path Foto": "https://lh3.googleusercontent.com/u/0/d/1MA_Uc0tkWNAfgmu9IY1nUlzvlqldKLvL" }, "geometry": { "type": "Point", "coordinates": [ 110.385085, -7.230036, 0.0 ] } },
{ "type": "Feature", "properties": { "fid": 9, "Name": "Kalikupang", "Deskripsi": "Benung Kalikupang merupakan bendung paling hulu dari sistem jaringan Kalikupang. Bendung ini dibangun sebagai suplesi dari jaringan eksisting untuk memenuhi kebutuhan irigasi setempat. Kondisi tubuh bendung cukup baik. Akan tetapi, terdapat bagian pada mercu bendung yang tergerus aliran air.", "Path Foto": "https://lh3.googleusercontent.com/u/0/d/15gyJAZMXUNeAGvA9_fef4fPxKsBGnWtk" }, "geometry": { "type": "Point", "coordinates": [ 110.385119122691478, -7.230036915834906, 0.0 ] } }
]
}
