{
"type": "FeatureCollection",
"name": "saluran irigasi new",
"crs": { "type": "name", "properties": { "name": "urn:ogc:def:crs:OGC:1.3:CRS84" } },
"features": [
{ "type": "Feature", "properties": { "begin": null, "end": null, "panjang": 181.383, "id": null, "nama": null, "warna": null, "layer": "Path Irigasi", "path": "D:/!! Coolyeah/! KKN/Merawi/!PRoker/Irigasi/Path Irigasi/Path Irigasi.shp" }, "geometry": { "type": "MultiLineString", "coordinates": [ [ [ 110.385119122691478, -7.230036915834906 ], [ 110.385119193663698, -7.230037207851445 ], [ 110.385122449454329, -7.230034361565564 ], [ 110.385118550555106, -7.230038512753118 ], [ 110.385116921564446, -7.230041124214984 ], [ 110.385115236478242, -7.230044165649461 ], [ 110.385113940342308, -7.23004670883333 ], [ 110.385112468325318, -7.230051211710995 ], [ 110.385113877109248, -7.230054698266605 ], [ 110.385115761630288, -7.230060538232536 ], [ 110.385118214006596, -7.230070421243709 ], [ 110.385324632330338, -7.230136933969641 ], [ 110.38564373491154, -7.230175278390525 ], [ 110.385700697106643, -7.230165876589908 ], [ 110.385756447640816, -7.23017513407381 ], [ 110.385819890065477, -7.230199212172201 ], [ 110.385874223609619, -7.230265284270327 ], [ 110.385916360455127, -7.230300797889803 ], [ 110.385976435150766, -7.230329431528371 ], [ 110.386004052296727, -7.230357085287898 ], [ 110.386051670768595, -7.230498508767521 ], [ 110.386038951489013, -7.230545767442709 ], [ 110.385953007179936, -7.23065415782124 ], [ 110.385933152863146, -7.230717773352764 ], [ 110.385956847378921, -7.230757747867011 ], [ 110.386049309401074, -7.230781588330438 ], [ 110.386085535158131, -7.230797863801428 ], [ 110.386102265581741, -7.230827011143729 ], [ 110.386099725284609, -7.230856964669019 ], [ 110.386047641164637, -7.230985264714112 ], [ 110.385997466755953, -7.23111667483498 ], [ 110.385953398252155, -7.23122914904503 ], [ 110.38592032409251, -7.231266910394292 ], [ 110.385921119149927, -7.231295204135768 ], [ 110.38593772630675, -7.231338497653034 ], [ 110.385952086277513, -7.231400372543489 ], [ 110.385953923863227, -7.231426078817588 ], [ 110.385950896688641, -7.231473742854702 ], [ 110.386002361752347, -7.231635883781924 ], [ 110.38601699978355, -7.231766086768898 ], [ 110.386014282711656, -7.231827887285633 ], [ 110.386016735099531, -7.231962018803025 ], [ 110.386021913443543, -7.232027774903321 ], [ 110.386029758531365, -7.232068988256569 ], [ 110.386054288902969, -7.232105840812626 ], [ 110.386075297175807, -7.232150578517914 ], [ 110.386086506023148, -7.232192819166044 ], [ 110.386070808000696, -7.232224503707815 ], [ 110.386039477084836, -7.23223965685292 ], [ 110.386010488315108, -7.232253936496189 ], [ 110.38588032379451, -7.232399568777162 ], [ 110.385867161639666, -7.23242763567422 ], [ 110.385872438396234, -7.232453855110596 ], [ 110.385901718007176, -7.232523169998643 ], [ 110.385932093945726, -7.232590536040848 ], [ 110.385952643705352, -7.232645328768561 ], [ 110.385961700929414, -7.232706659091397 ], [ 110.385952522905058, -7.232734731358679 ], [ 110.385885808791031, -7.232849788456842 ], [ 110.385873241888703, -7.232890195190227 ], [ 110.385865259344257, -7.23293928053257 ], [ 110.385849373534384, -7.232978785644126 ], [ 110.385841841928254, -7.233002491406022 ], [ 110.385836815233802, -7.233022455926035 ], [ 110.385840499782248, -7.23307072485466 ], [ 110.385881266205686, -7.233205208976377 ], [ 110.38589972032976, -7.233249935222084 ], [ 110.385938582389031, -7.233338805248413 ], [ 110.38595945794026, -7.233383768794181 ], [ 110.385983944534416, -7.233415787068641 ], [ 110.385993548182512, -7.23341962264054 ], [ 110.386003151830806, -7.233423458212246 ], [ 110.386027917273836, -7.233422555428552 ], [ 110.386064354449331, -7.233427051257912 ], [ 110.386088498723566, -7.233423339170524 ], [ 110.386131866315978, -7.233415440284976 ], [ 110.386151204127472, -7.233413242969833 ], [ 110.386169833480366, -7.23341502335606 ], [ 110.386235480253063, -7.233424938676801 ], [ 110.386283646001772, -7.233421807756638 ], [ 110.386361451853034, -7.233423472802871 ], [ 110.386385182136749, -7.233437079000716 ], [ 110.386399221904895, -7.233453324585796 ], [ 110.386409023786527, -7.233483918833147 ], [ 110.386455493618982, -7.233550604405574 ], [ 110.386508385037658, -7.233605674701551 ], [ 110.38654066530006, -7.233651355697273 ], [ 110.386543410297918, -7.233671083405218 ], [ 110.386544406835256, -7.233694003764542 ], [ 110.386536434536367, -7.233742834095275 ], [ 110.386528462237465, -7.233784688664483 ], [ 110.386534441461635, -7.23383152592049 ], [ 110.386553375671539, -7.233955096553377 ], [ 110.386553375671539, -7.233979013450075 ], [ 110.386515507251787, -7.234010902645649 ], [ 110.386477638832005, -7.234043788378609 ], [ 110.386461694234214, -7.234081656798361 ], [ 110.386463687308932, -7.234138459427986 ], [ 110.386433791188082, -7.234189282833447 ], [ 110.38631520324202, -7.234238113164187 ], [ 110.386145791890485, -7.234310860391611 ], [ 110.386095965022378, -7.234354708035534 ], [ 110.386087992723489, -7.234442403323404 ], [ 110.38609795809711, -7.234524119387078 ], [ 110.386095965022378, -7.234520133237629 ] ] ] } },
{ "type": "Feature", "properties": { "begin": null, "end": null, "panjang": null, "id": 2307, "nama": "DI Sibening Bd", "warna": "#a8a8a8", "layer": "Saluran dari siair", "path": "Saluran dari siair.shp" }, "geometry": { "type": "MultiLineString", "coordinates": [ [ [ 110.386576, -7.235541999999616 ], [ 110.386472, -7.235760999999609 ], [ 110.386395, -7.235950999999613 ], [ 110.386397, -7.235955999999615 ] ] ] } },
{ "type": "Feature", "properties": { "begin": null, "end": null, "panjang": null, "id": 2310, "nama": "DI Sibening Bd", "warna": "#a8a8a8", "layer": "Saluran dari siair", "path": "Saluran dari siair.shp" }, "geometry": { "type": "MultiLineString", "coordinates": [ [ [ 110.385885, -7.232439999999612 ], [ 110.385891, -7.232472999999613 ], [ 110.385907, -7.232534999999609 ], [ 110.385924, -7.232573999999604 ], [ 110.385945, -7.232634999999615 ], [ 110.38596, -7.232690999999612 ], [ 110.385955, -7.232722999999615 ], [ 110.385947, -7.23275199999961 ], [ 110.385925, -7.232793999999622 ], [ 110.385896, -7.232855999999619 ], [ 110.385876, -7.232898999999615 ], [ 110.385833, -7.233010999999621 ], [ 110.385834, -7.233041999999624 ], [ 110.385848, -7.233089999999623 ], [ 110.385857, -7.233119999999616 ], [ 110.38586, -7.233121999999618 ], [ 110.385872, -7.233162999999619 ], [ 110.385894, -7.233221999999609 ], [ 110.385923, -7.233298999999613 ], [ 110.385958, -7.233363999999611 ], [ 110.385977, -7.233384999999608 ], [ 110.385995, -7.233396999999619 ], [ 110.386056, -7.233407999999616 ], [ 110.386081, -7.233407999999621 ], [ 110.386136, -7.233406999999615 ], [ 110.386177, -7.233402999999617 ], [ 110.386248, -7.233412999999617 ], [ 110.386292, -7.233410999999622 ], [ 110.386329, -7.23340999999961 ], [ 110.386374, -7.233418999999613 ], [ 110.386389, -7.233426999999613 ], [ 110.386401, -7.233447999999609 ], [ 110.386414, -7.233485999999616 ], [ 110.38645, -7.233533999999611 ], [ 110.386494, -7.23358799999962 ], [ 110.386526, -7.233623999999613 ], [ 110.386547, -7.233655999999622 ], [ 110.386546, -7.233672999999608 ], [ 110.386535, -7.23371899999962 ], [ 110.386535, -7.233806999999613 ], [ 110.386548, -7.233855999999611 ], [ 110.386562, -7.233918999999611 ], [ 110.386557, -7.233950999999613 ], [ 110.386548, -7.233977999999609 ], [ 110.386528, -7.233996999999608 ], [ 110.386498, -7.23401599999961 ], [ 110.386474, -7.234049999999615 ], [ 110.386466, -7.234089999999619 ], [ 110.38646, -7.234122999999606 ], [ 110.38646, -7.234149999999618 ], [ 110.386447, -7.23417399999961 ], [ 110.386418, -7.234186999999621 ], [ 110.386386, -7.234204999999617 ], [ 110.386336, -7.234222999999612 ], [ 110.386235, -7.234249999999609 ], [ 110.386175, -7.234271999999618 ], [ 110.386148, -7.234283999999618 ], [ 110.386109, -7.234300999999615 ], [ 110.38609, -7.234314999999615 ], [ 110.386075, -7.234333999999619 ], [ 110.386086, -7.234457999999613 ], [ 110.386091, -7.234501999999622 ], [ 110.386114, -7.234531999999611 ], [ 110.386151, -7.234566999999614 ], [ 110.386177, -7.234597999999609 ], [ 110.386202, -7.234632999999612 ], [ 110.386224, -7.234657999999611 ], [ 110.386257, -7.234672999999622 ], [ 110.386306, -7.23470299999962 ], [ 110.386404, -7.234755999999614 ], [ 110.386505, -7.234840999999607 ], [ 110.386565, -7.234897999999611 ], [ 110.386607, -7.234961999999611 ], [ 110.386681, -7.235042999999612 ], [ 110.386733, -7.235109999999606 ], [ 110.38677, -7.235154999999608 ], [ 110.386775, -7.235187999999613 ], [ 110.386767, -7.23521699999961 ], [ 110.386755, -7.235253999999615 ], [ 110.386575, -7.235541999999605 ] ] ] } },
{ "type": "Feature", "properties": { "begin": null, "end": null, "panjang": null, "id": 2311, "nama": "DI Sibening Bd", "warna": "#a8a8a8", "layer": "Saluran dari siair", "path": "Saluran dari siair.shp" }, "geometry": { "type": "MultiLineString", "coordinates": [ [ [ 110.386925, -7.23576499999962 ], [ 110.386578, -7.235548999999617 ] ] ] } }
]
}
