{
"type": "FeatureCollection",
"name": "saluran irigasi",
"crs": { "type": "name", "properties": { "name": "urn:ogc:def:crs:EPSG::32749" } },
"features": [
{ "type": "Feature", "properties": { "begin": null, "end": null, "panjang": 181.383, "id": null, "nama": null, "warna": null, "layer": "Path Irigasi", "path": "D:/!! Coolyeah/! KKN/Merawi/!PRoker/Irigasi/Path Irigasi/Path Irigasi.shp" }, "geometry": { "type": "MultiLineString", "coordinates": [ [ [ 432118.307780088623986, 9200775.382988663390279 ], [ 432118.31565918592969, 9200775.350715698674321 ], [ 432118.674680787546095, 9200775.665869008749723 ], [ 432118.24485340109095, 9200775.206357916817069 ], [ 432118.065399117069319, 9200774.91740788333118 ], [ 432117.879815964377485, 9200774.580914363265038 ], [ 432117.737099399848375, 9200774.299562357366085 ], [ 432117.57525780168362, 9200773.80153246037662 ], [ 432117.731311338022351, 9200773.416290445253253 ], [ 432117.940238738316111, 9200772.770940836519003 ], [ 432118.212462347059045, 9200771.678701750934124 ], [ 432141.011436342028901, 9200764.356240689754486 ], [ 432176.24679026735248, 9200760.164674423635006 ], [ 432182.534139666648116, 9200761.212565990164876 ], [ 432188.690502620243933, 9200760.197421034798026 ], [ 432195.69827747164527, 9200757.544945504516363 ], [ 432201.706674256827682, 9200750.248515324667096 ], [ 432206.363970107457135, 9200746.328624648973346 ], [ 432213.000616694975179, 9200743.172013016417623 ], [ 432216.053732863918412, 9200740.118896845728159 ], [ 432221.332001495116856, 9200724.491081876680255 ], [ 432219.934812739840709, 9200719.264560978859663 ], [ 432210.462544096459169, 9200707.268792193382978 ], [ 432208.280073614383582, 9200700.232895217835903 ], [ 432210.901958686416037, 9200695.817088780924678 ], [ 432221.113511072238907, 9200693.195203708484769 ], [ 432225.115335655864328, 9200691.401282344013453 ], [ 432226.966754500113893, 9200688.181423462927341 ], [ 432226.690766597806942, 9200684.869568634778261 ], [ 432220.959705319895875, 9200670.677753143012524 ], [ 432215.439947273524012, 9200656.142390288412571 ], [ 432210.591472296393476, 9200643.701373223215342 ], [ 432206.94565294747008, 9200639.521785506978631 ], [ 432207.037648914905731, 9200636.393922615796328 ], [ 432208.877568263502326, 9200631.610132308676839 ], [ 432210.472165032231715, 9200624.771765395998955 ], [ 432210.678872018470429, 9200621.930112190544605 ], [ 432210.351775245391764, 9200616.660219736397266 ], [ 432216.057796731824055, 9200598.742585385218263 ], [ 432217.69328059698455, 9200584.350327370688319 ], [ 432217.402527909784112, 9200577.51763922162354 ], [ 432217.693280597450212, 9200562.689252177253366 ], [ 432218.274785971909296, 9200555.420435002073646 ], [ 432219.147044033452403, 9200550.865309569984674 ], [ 432221.860735780501273, 9200546.794771948829293 ], [ 432224.186757277930155, 9200541.851976266130805 ], [ 432225.430532662256155, 9200537.18378034606576 ], [ 432223.702169466065243, 9200533.678595174103975 ], [ 432220.245443073916249, 9200531.998690756037831 ], [ 432217.047163514944259, 9200530.415703903883696 ], [ 432202.69850578304613, 9200514.296107996255159 ], [ 432201.249569295847323, 9200511.191244095563889 ], [ 432201.836043588351458, 9200508.293371120467782 ], [ 432205.078901440661866, 9200500.63470683246851 ], [ 432208.442503999918699, 9200493.191658088937402 ], [ 432210.719404194154777, 9200487.137173479422927 ], [ 432211.728484961902723, 9200480.3582206312567 ], [ 432210.719404194096569, 9200477.253356730565429 ], [ 432203.371226294839289, 9200464.523414734750986 ], [ 432201.989849336969201, 9200460.054423162713647 ], [ 432201.115887645864859, 9200454.626661086454988 ], [ 432199.36796426406363, 9200450.256852630525827 ], [ 432198.54000055702636, 9200447.634967559948564 ], [ 432197.988024752237834, 9200445.427064340561628 ], [ 432198.402006605872884, 9200440.091298226267099 ], [ 432202.922745953488629, 9200425.229637145996094 ], [ 432204.966781354916748, 9200420.287728771567345 ], [ 432209.270467706606723, 9200410.468596683815122 ], [ 432211.58186638855841, 9200405.500814441591501 ], [ 432214.289997680054512, 9200401.964719442650676 ], [ 432215.350826179608703, 9200401.542112966999412 ], [ 432216.411654679104686, 9200401.119506491348147 ], [ 432219.145659836241975, 9200401.223001949489117 ], [ 432223.169045974558685, 9200400.731398494914174 ], [ 432225.834054156381171, 9200401.145380347967148 ], [ 432230.620719337370247, 9200402.025091789662838 ], [ 432232.755313269270118, 9200402.270893516018987 ], [ 432234.812285603838973, 9200402.07683952152729 ], [ 432242.061260321876034, 9200400.990439143031836 ], [ 432247.378359784488566, 9200401.343746658414602 ], [ 432255.968483248376288, 9200401.171254219487309 ], [ 432258.59036832296988, 9200399.670570001006126 ], [ 432260.142800274014007, 9200397.876648634672165 ], [ 432261.229502639791463, 9200394.495796829462051 ], [ 432266.369777321873698, 9200387.130369681864977 ], [ 432272.217271004803479, 9200381.050011206418276 ], [ 432275.787864492624067, 9200376.004607366397977 ], [ 432276.093856367398985, 9200373.824042417109013 ], [ 432276.20729171752464, 9200371.290257401764393 ], [ 432275.334417608217336, 9200365.890691004693508 ], [ 432274.460503950947896, 9200361.26232167519629 ], [ 432275.127599495870527, 9200356.085173942148685 ], [ 432277.236379421432503, 9200342.426786301657557 ], [ 432277.239944335946348, 9200339.782681912183762 ], [ 432273.063976446574088, 9200336.251572525128722 ], [ 432268.888157691340894, 9200332.610291715711355 ], [ 432267.133499531482812, 9200328.421419335529208 ], [ 432267.362005530274473, 9200322.141967987641692 ], [ 432264.069014220964164, 9200316.518795136362314 ], [ 432250.984042154741473, 9200311.102757729589939 ], [ 432232.291675323154777, 9200303.035042012110353 ], [ 432226.797270568320528, 9200298.180094588547945 ], [ 432225.930201395880431, 9200288.483856540173292 ], [ 432227.042580243956763, 9200279.451316803693771 ], [ 432226.82194787915796, 9200279.891704006120563 ] ] ] } },
{ "type": "Feature", "properties": { "begin": null, "end": null, "panjang": null, "id": 2307, "nama": "DI Sibening Bd", "warna": "#a8a8a8", "layer": "Saluran dari siair", "path": "Saluran dari siair.shp" }, "geometry": { "type": "MultiLineString", "coordinates": [ [ [ 432279.970685371023137, 9200166.991904243826866 ], [ 432268.521648131834809, 9200142.765130365267396 ], [ 432260.04911894450197, 9200121.74843511171639 ], [ 432260.270666185882874, 9200121.195963781327009 ] ] ] } },
{ "type": "Feature", "properties": { "begin": null, "end": null, "panjang": null, "id": 2310, "nama": "DI Sibening Bd", "warna": "#a8a8a8", "layer": "Saluran dari siair", "path": "Saluran dari siair.shp" }, "geometry": { "type": "MultiLineString", "coordinates": [ [ [ 432203.220798366586678, 9200509.826978158205748 ], [ 432203.888131353014614, 9200506.17959563806653 ], [ 432205.663806882628705, 9200499.327641809359193 ], [ 432207.546452503826004, 9200495.018575007095933 ], [ 432209.873986100719776, 9200488.2779197730124 ], [ 432211.538363752653822, 9200482.089139819145203 ], [ 432210.991129369591363, 9200478.550672419369221 ], [ 432210.112242833944038, 9200475.343419581651688 ], [ 432207.689673853921704, 9200470.696881253272295 ], [ 432204.49727828707546, 9200463.838223233819008 ], [ 432202.295662727614399, 9200459.081428674980998 ], [ 432197.565107840928249, 9200446.692992443218827 ], [ 432197.680134857189842, 9200443.265972591936588 ], [ 432199.232917884248309, 9200437.961474601179361 ], [ 432200.231007505673915, 9200434.646200591698289 ], [ 432200.562510375049897, 9200434.42553992383182 ], [ 432201.893445527821314, 9200429.894620716571808 ], [ 432204.331080709351227, 9200423.375222424045205 ], [ 432207.54421093291603, 9200414.866897964850068 ], [ 432211.417958469886798, 9200407.686113253235817 ], [ 432213.518718374252785, 9200405.367313357070088 ], [ 432215.507734066748526, 9200404.043348906561732 ], [ 432222.243861244758591, 9200402.836343636736274 ], [ 432225.003896558773704, 9200402.840067509561777 ], [ 432231.075825057458133, 9200402.958813328295946 ], [ 432235.601686372421682, 9200403.407134920358658 ], [ 432243.441677711438388, 9200402.312169957906008 ], [ 432248.299041417136323, 9200402.539829481393099 ], [ 432252.383744376478717, 9200402.655892470851541 ], [ 432257.353149439964909, 9200401.667607929557562 ], [ 432259.010363156790845, 9200400.785410519689322 ], [ 432260.338310662133154, 9200398.465566717088223 ], [ 432261.779193767928518, 9200394.266456741839647 ], [ 432265.760799030598719, 9200388.965232452377677 ], [ 432270.626508734188974, 9200383.001875814050436 ], [ 432274.164718177227769, 9200379.026701437309384 ], [ 432276.4879161096178, 9200375.49210487306118 ], [ 432276.380048613413237, 9200373.612541044130921 ], [ 432275.172490332159214, 9200368.525427876040339 ], [ 432275.185607128893025, 9200358.796691413968801 ], [ 432276.62812769372249, 9200353.381489088758826 ], [ 432278.183135988248978, 9200346.418682051822543 ], [ 432277.635899282584433, 9200342.880215458571911 ], [ 432276.646312343422323, 9200339.893922571092844 ], [ 432274.441119207476731, 9200337.790422853082418 ], [ 432271.131913696648553, 9200335.685434402897954 ], [ 432268.48735208879225, 9200331.923031538724899 ], [ 432267.610105203581043, 9200327.499687522649765 ], [ 432266.952617403410841, 9200323.850518008694053 ], [ 432266.956642573990393, 9200320.865564685314894 ], [ 432265.525004673865624, 9200318.210337441414595 ], [ 432262.325307512655854, 9200316.768820099532604 ], [ 432258.795152376173064, 9200314.774086715653539 ], [ 432253.277775747701526, 9200312.776672782376409 ], [ 432242.131280230532866, 9200309.776678536087275 ], [ 432235.510489269392565, 9200307.335557879880071 ], [ 432232.531446762848645, 9200306.004890231415629 ], [ 432228.22833589540096, 9200304.119665680453181 ], [ 432226.132801625179127, 9200302.569081647321582 ], [ 432224.479618126933929, 9200300.466324226930737 ], [ 432225.712529086798895, 9200286.759287301450968 ], [ 432226.271098662633449, 9200281.895663380622864 ], [ 432228.814800190099049, 9200278.58247459679842 ], [ 432232.904863036586903, 9200274.718601970002055 ], [ 432235.779916296771262, 9200271.295305931940675 ], [ 432238.545164670678787, 9200267.429645473137498 ], [ 432240.97771783702774, 9200264.669076405465603 ], [ 432244.623191420047078, 9200263.015683870762587 ], [ 432250.037319233582821, 9200259.706366404891014 ], [ 432260.864528878475539, 9200253.861606705933809 ], [ 432272.02770972851431, 9200244.479568973183632 ], [ 432278.66027000604663, 9200238.186933005228639 ], [ 432283.30665358400438, 9200231.117740133777261 ], [ 432291.488401904993225, 9200222.17389483936131 ], [ 432297.239239258749876, 9200214.77452782727778 ], [ 432301.330781853990629, 9200209.805112158879638 ], [ 432301.887704548833426, 9200206.157580018043518 ], [ 432301.008818624541163, 9200202.950328512117267 ], [ 432299.689521271560807, 9200198.858051067218184 ], [ 432279.860284486901946, 9200166.991755370050669 ] ] ] } },
{ "type": "Feature", "properties": { "begin": null, "end": null, "panjang": null, "id": 2311, "nama": "DI Sibening Bd", "warna": "#a8a8a8", "layer": "Saluran dari siair", "path": "Saluran dari siair.shp" }, "geometry": { "type": "MultiLineString", "coordinates": [ [ [ 432318.53381920105312, 9200142.390343859791756 ], [ 432280.192530701926444, 9200166.218325175344944 ] ] ] } }
]
}
